new_ben_type,postal_cd,ben,name,usac_type,usac_attributes,street_address,city,zip_code,applicant_ben,applicant_name,applicant_usac_type,applicant_usac_attributes,applicant_esh_type,applicant_esh_id
recipient,AK,117238,CLARK'S POINT SCHOOL,School,Public School;,Not Yet Known,CLARKS POINT,AK,145573,SOUTHWEST REGION SCHOOL DIST,School District,Public School District;,District,882778
recipient,AK,17010559,STREAM  ACADEMY ,School,Charter School;Public School;,7801 E. 32 Ave,Anchorage ,AK,145553,ANCHORAGE SCHOOL DISTRICT,School District,Charter School District;Public School District;,District,882642
recipient,AK,17011718,June Elementary School,School,Public School;,PO BOX 264,KOTZEBUE,AK,145645,NORTHWEST ARCTIC BORO SCH DIST,School District,Public School District;,District,882747
recipient,AK,17013013,DELTA JUNCTION JUNIOR HIGH SCHOOL,School,Public School;,1655 N Clearwater Ave,Delta Junction,AK,145633,DELTA/GREELY SCHOOL DISTRICT,School District,Public School District;,District,882618
recipient,AK,17013427,Alaska Middle College,School,Public School;,10928 Eagle River Rd,Eagle River,AK,145553,ANCHORAGE SCHOOL DISTRICT,School District,Charter School District;Public School District;,District,882642
recipient,AL,17011506,Robert Brown Middle School,School,Public School;,623 MESOPOTAMIA ST,EUTAW,AL,127980,GREENE COUNTY SCHOOL DISTRICT,School District,Public School District;,District,881962
recipient,AL,17012772,Creekside Elementary,School,Public School;,16049 SANDERSON RD,HARVEST,AL,128009,LIMESTONE COUNTY SCHOOL DIST,School District,Public School District;,District,882062
recipient,AL,17012773,Sugar Creek Elementary ,School,New Construction School;Public School;,26595 Salem Minor Hill Rd,Lester,AL,128009,LIMESTONE COUNTY SCHOOL DIST,School District,Public School District;,District,882062
recipient,AL,17012778,Tanner Elementary K-5 ,School,Public School;,12060 SOMMERS RD,TANNER,AL,128009,LIMESTONE COUNTY SCHOOL DIST,School District,Public School District;,District,882062
recipient,AL,17012779,Elkmont Elementary  ,School,Public School;,25630 EVANS AVE,ELKMONT,AL,128009,LIMESTONE COUNTY SCHOOL DIST,School District,Public School District;,District,882062
recipient,AL,17012861, Center for Advanced Academics and Accelerated Learning,School,Public School;,102 Mockingbird Lane,Troy,AL,128079,PIKE COUNTY SCHOOL DISTRICT,School District,Public School District;,District,882203
recipient,AL,17013151,JEMISON HIGH SCHOOL,School,Public School;,5000 PULASKI PIKE NW,HUNTSVILLE,AL,128038,HUNTSVILLE CITY SCHOOL DIST,School District,Public School District;,District,882000
recipient,AL,17013159,SONNIE HEREFORD ELEMENTARY SCHOOL,School,Public School;,2755 WILSON DR NW,HUNTSVILLE,AL,128038,HUNTSVILLE CITY SCHOOL DIST,School District,Public School District;,District,882000
recipient,AL,17013254,GENEVA REGIONAL CAREER TECH CTR,School,New Construction School;Public School;,1308 WEST MAPLE AVENUE,GENEVA,AL,128121,GENEVA COUNTY SCHOOL DISTRICT,School District,Public School District;,District,881958
recipient,AL,17013352,AUSTIN HIGH SCHOOL NEW CONSTRUCTION,School,New Construction School;Public School;,3004 MODAUS RD SW,DECATUR,AL,128005,DECATUR CITY SCHOOL DISTRICT,School District,Public School District;,District,881871
recipient,AL,17013353,DECATUR HIGH SCHOOL NEW CONSTRUCTION ,School,New Construction School;Public School;,910 SOMERVILLE ROAD ,DECATUR,AL,128005,DECATUR CITY SCHOOL DISTRICT,School District,Public School District;,District,881871
recipient,AL,17013453,Jefferson County IB Middle School,School,Public School;,805 7TH AVE,PLEASANT GROVE,AL,127957,JEFFERSON COUNTY SCHOOL DIST,School District,Public School District;,District,882026
recipient,AL,17013456,SAFE CARE ,School,Public School;,201 W GREEN ST,ATHENS,AL,128010,ATHENS CITY SCHOOL DISTRICT,School District,Public School District;,District,881588
applicant,AR,17012249,Northwest Arkansas Childrens Shelter On-Site School,School,Public School;,14100 VAUGHN RD,BENTONVILLE,AR,17012249,Northwest Arkansas Childrens Shelter On-Site School,School,Public School;,,
recipient,AR,17012689,Lonoke Alternative School,School,Public School;,401 W HOLLY ST,LONOKE,AR,139507,LONOKE PUBLIC SCHOOL DISTRICT,School District,Public School District;,District,882474
recipient,AR,17012696,Umpire K-12 School,School,Public School;,142 School Street,Umpire,AR,139448,COSSATOT RIVER SCHOOL DISTRICT,School District,Public School District;,District,881838
recipient,AR,17012798,Yellville-Summit Alternative School,School,Public School;,1124 N PANTHER AVE,YELLVILLE,AR,139666,YELLVILLE-SUMMIT SCHOOL DISTRICT,School District,Public School District;,District,882842
recipient,AR,17012848,ESTEM ELEMENTARY EAST VILLAGE,School,Public School;,400 SHALL ST,LITTLE ROCK,AR,16050850,ESTEM PUBLIC CHARTER SCHOOLS,School District,Public School District;,OtherLocation,1006126
recipient,AR,17012849,ESTEM JUNIOR HIGH EAST VILLAGE,School,Public School;,400 SHALL ST,LITTLE ROCK,AR,16050850,ESTEM PUBLIC CHARTER SCHOOLS,School District,Public School District;,OtherLocation,1006126
recipient,AR,17013215,CENTERPOINT ELEMENTARY,School,Public School;,637 HWY 8 E ,AMITY,AR,139451,CENTERPOINT SCHOOL DISTRICT,School District,Public School District;,District,882259
recipient,AR,17013398,FARMINGTON FRESHMAN ACADEMY,School,Public School;,278 West Main Street,Farmington,AR,139673,FARMINGTON SCHOOL DISTRICT,School District,Public School District;,District,882202
recipient,AR,17013476,Creekside Middle School,School,Public School;,2901 SW 28TH ST,Bentonville,AR,139669,BENTONVILLE PUBLIC SCHOOLS,School District,Public School District;,District,881948
recipient,AZ,16052113,BLUE RIDGE INTERMEDIATE SCHOOL,School,New Construction School;Public School;,1200 WEST WHITE MT BLVD,PINETOP LAKESIDE,AZ,143137,BLUE RIDGE UNIF SCHOOL DIST 32,School District,Public School District;,District,883290
applicant,AZ,17002491,Vista College Prep Maryvale ,School,Charter School;Public School;,4520 W. McDowell Rd,PHOENIX,AZ,17002491,Vista College Prep Maryvale ,School,Charter School;Public School;,,
applicant,AZ,17005831,Colegio Petite,School,Charter School;Public School;,850 N MORLEY AVE,NOGALES,AZ,17005831,Colegio Petite,School,Charter School;Public School;,,
applicant,AZ,17006567,LEADING EDGE ACADEMY MARICOPA,School,Charter School;Public School;,#N/A,#N/A,#N/A,17006567,LEADING EDGE ACADEMY MARICOPA,School,Charter School;Public School;,,
applicant,AZ,17009406,Northstar ,School District,Charter School District;Public School District;,#N/A,#N/A,#N/A,17009406,Northstar ,School District,Charter School District;Public School District;,,
applicant,AZ,17011571,Metropolitan Arts Institute ,School,Charter School;Public School;,1700 N 7TH AVE,PHOENIX,AZ,17011571,Metropolitan Arts Institute ,School,Charter School;Public School;,,
recipient,AZ,17011664,Chandler Early College High School,School,Public School;,"2626 E. Pecos Rd, BLDG JAV",Chandler,AZ,142926,CHANDLER UNIF SCHOOL DIST 80,School District,Public School District;,District,883088
recipient,AZ,17011665,Chandler Online Academy,School,Public School;,650 E. Morelos St ,Chandler,AZ,142926,CHANDLER UNIF SCHOOL DIST 80,School District,Public School District;,District,883088
recipient,AZ,17011666,Elite Performance Academy,School,Public School;,1825 S Alma School Rd,Chandler,AZ,142926,CHANDLER UNIF SCHOOL DIST 80,School District,Public School District;,District,883088
recipient,AZ,17011667,ICAN,School,Public School;,650 E. Morelos St. ,Chandler,AZ,142926,CHANDLER UNIF SCHOOL DIST 80,School District,Public School District;,District,883088
applicant,AZ,17011960,Camelback Christian School,School,Charter School;Public School;,3900 E STANFORD DR,PARADISE VALLEY,AZ,17011960,Camelback Christian School,School,Charter School;Public School;,,
recipient,AZ,17012053,Marionneaux Elementary School,School,New Construction School;Public School;,24155 W Roeser Rd,Buckeye,AZ,142981,BUCKEYE SCHOOL DISTRICT 33,School District,Public School District;,District,883065
recipient,AZ,17012185,PHOENIX CODING ACADEMY,School,Public School;,4445 N CENTRAL AVE,PHOENIX,AZ,142901,PHOENIX UN HIGH SCH DIST 210,School District,Public School District;,District,883278
recipient,AZ,17012186,PHOENIX UNION COLLEGE PREPARATORY ACADEMY,School,Public School;,3005 E FILLMORE ST,PHOENIX,AZ,142901,PHOENIX UN HIGH SCH DIST 210,School District,Public School District;,District,883278
recipient,AZ,17012581,Legacy Traditional School Nevada - North Valley,School,Charter School;New Construction School;Public School;,5024 Valley Dr.,North Las Vegas,NV,16072993,LEGACY TRADITIONAL SCHOOLS,School District,Charter School District;Public School District;,District,882850
recipient,AZ,17012857,Paradise Honors Middle School,School,Charter School;New Construction School;Public School;,12805 N 175th Av,Suprise,AZ,16059433,PARADISE EDUCATION CENTER DISTRICT,School District,Charter School District;Public School District;,District,882070
applicant,AZ,17013056,OMBUDSMAN EDUCATIONAL SERVICES,School District,ESA School District;Public School District;,#N/A,#N/A,#N/A,17013056,OMBUDSMAN EDUCATIONAL SERVICES,School District,ESA School District;Public School District;,,
recipient,AZ,17013229,Indian Oasis Alternative High School,School,Public School;,111 W. Main,Sells,AZ,143102,BABOQUIVARI UNIFIED SCH DIST 40,School District,Public School District;,District,883176
recipient,AZ,17013230,Indian Oasis Alternative Middle School,School,Public School;,111 W. Main,Sells,AZ,143102,BABOQUIVARI UNIFIED SCH DIST 40,School District,Public School District;,District,883176
recipient,AZ,17013311,Blue Ridge Porter Mountain Campus,School,New Construction School;Public School;,3050 N Porter Mountain Rd,Lakeside,AZ,143137,BLUE RIDGE UNIF SCHOOL DIST 32,School District,Public School District;,District,883290
recipient,AZ,17013326,Meyer Montessori,School,New Construction School;Public School;,2615 S Dorsey Ln,Tempe,AZ,142962,TEMPE SCHOOL DISTRICT 3,School District,Public School District;,District,883369
recipient,AZ,17013498,Partnership Performing Arts High School,School,Public School;,25 E DRACHMAN ST,TUCSON,AZ,16051398,PIMA PARTNERSHIP CHARTER SCHOOLS,School District,Charter School District;Public School District;,District,882447
recipient,AZ,17013857,CHARTER VALENCIA,School,Public School;,#N/A,#N/A,#N/A,17013056,OMBUDSMAN EDUCATIONAL SERVICES,School District,ESA School District;Public School District;,,
recipient,AZ,17013858,CHARTER WEST,School,Public School;,#N/A,#N/A,#N/A,17013056,OMBUDSMAN EDUCATIONAL SERVICES,School District,ESA School District;Public School District;,,
recipient,AZ,17013859,CHARTER NORTHWEST,School,Public School;,#N/A,#N/A,#N/A,17013056,OMBUDSMAN EDUCATIONAL SERVICES,School District,ESA School District;Public School District;,,
recipient,AZ,17013860,CHARTER NORTHEAST,School,Public School;,#N/A,#N/A,#N/A,17013056,OMBUDSMAN EDUCATIONAL SERVICES,School District,ESA School District;Public School District;,,
recipient,AZ,17013861,CHARTER EAST,School,Public School;,#N/A,#N/A,#N/A,17013056,OMBUDSMAN EDUCATIONAL SERVICES,School District,ESA School District;Public School District;,,
recipient,AZ,17013862,CHARTER EAST II,School,Public School;,#N/A,#N/A,#N/A,17013056,OMBUDSMAN EDUCATIONAL SERVICES,School District,ESA School District;Public School District;,,
recipient,AZ,17013863,CHARTER METRO,School,Public School;,#N/A,#N/A,#N/A,17013056,OMBUDSMAN EDUCATIONAL SERVICES,School District,ESA School District;Public School District;,,
applicant,AZ,17014011,NAVAJO COUNTY ACCOMMODATION DISTRICT 99,School,Public School;,#N/A,#N/A,#N/A,17014011,NAVAJO COUNTY ACCOMMODATION DISTRICT 99,School,Public School;,,
applicant,AZ,17014259,Victory Collegiate Academy Corporation,School,Charter School;Public School;,#N/A,#N/A,#N/A,17014259,Victory Collegiate Academy Corporation,School,Charter School;Public School;,,
recipient,AZ,17014910,Arizona Preparatory Academy,School,Charter School;Public School;,#N/A,#N/A,#N/A,17009406,Northstar ,School District,Charter School District;Public School District;,,
recipient,CA,102256,LINDA VISTA ELEMENTARY SCHOOL,School,Public School;,1259 LINDA VISTA AVE,PASADENA,CA,143544,PASADENA UNIFIED SCHOOL DISTRICT,School District,Public School District;,District,883784
applicant,CA,102756,EL CAMINO REAL CHARTER HIGH SCH,School,Charter School;Public School;,#N/A,#N/A,#N/A,102756,EL CAMINO REAL CHARTER HIGH SCH,School,Charter School;Public School;,,
recipient,CA,105227,HEMET ELEMENTARY SCHOOL,School,Public School;,633 E. KIMBALL AVENUE,HEMET,CA,143751,HEMET UNIFIED SCHOOL DISTRICT,School District,Public School District;,District,883465
recipient,CA,110915,GREENWOOD ELEMENTARY SCHOOL,School,Public School;,STATE HIGHWAY 1,ELK,CA,144474,MENDOCINO UNIF SCHOOL DISTRICT,School District,Public School District;,District,883666
recipient,CA,16038625,ACADEMY OF THE CANYONS,School,Public School;,26455 N. ROCKWELL CANYON ROAD,SANTA CLARITA,CA,143553,WM S HART UNION HS DISTRICT,School District,Public School District;,District,884055
recipient,CA,16053689,SEQUOIA CHARTER SCHOOL,School,Public School;,21445 CENTRE POINTE PARKWAY,SANTA CLARITA,CA,143553,WM S HART UNION HS DISTRICT,School District,Public School District;,District,884055
recipient,CA,16054743,ECEC (Early Childhood Education),School,Head Start;Public School;,321 W Washington Ave,SANTA ANA,CA,143778,SANTA ANA UNIF SCHOOL DISTRICT,School District,Public School District;,District,883904
recipient,CA,16058777,Alameda County Community Main ,School,Public School;,313 WEST WINTON AVE,HAYWARD,CA,144194,ALAMEDA CO OFFICE OF EDUCATION,School District,Public School District;,Consortium,884159
recipient,CA,16059881,CIS ACADEMY,School,Public School;,2925 E SIERRA MADRE BLVD,PASADENA,CA,143544,PASADENA UNIFIED SCHOOL DISTRICT,School District,Public School District;,District,883784
recipient,CA,16061593,CRC SPECIAL EDUCATION,School,Public School;,3777 S BASCOM AVE,CAMPBELL,CA,144333,SANTA CLARA CO OFFICE OF EDUCATION,School District,Charter School District;ESA School District;Public School District;,Consortium,884131
recipient,CA,16061603,SARATOGA SUB ACUTE SPECIAL EDUCATION,School,Public School;,13425 SOUSA LN,SARATOGA,CA,144333,SANTA CLARA CO OFFICE OF EDUCATION,School District,Charter School District;ESA School District;Public School District;,Consortium,884131
recipient,CA,16064616,BIG RIVER ELEMENTARY SCHOOL,School,Public School;,149123 N. NEW ROAD,BIG RIVER,CA,143724,NEEDLES UNIFIED SCHOOL DISTRICT,School District,Public School District;,District,883718
recipient,CA,16067693,SOUTH REGION HIGH SCHOOL #8,School,Public School;,NE CORNER OF SLAUSON AVE AND KING AVE,MAYWOOD,CA,143454,LOS ANGELES UNIFIED SCHOOL DISTRICT,School District,Public School District;,District,883628
recipient,CA,16069886,SOUTH COUNTY COMMUNITY DAY,School,Public School;,720 ROCKFELLOW DR,SHASTA,CA,144751,SISKIYOU UNION HIGH SCHOOL DISTRICT,School District,Public School District;,District,883943
recipient,CA,16073903,SHATTUCK INDEPENDENT STUDY,School,Public School;,10082 VINCENT RD.,DELHI,CA,144364,DELHI UNIFIED SCHOOL DISTRICT,School District,Public School District;,District,881644
recipient,CA,16074872,STANISLAUS COUNTY SPECIAL EDUCATION,School,Public School;,"1100 H STREET, RT 844",MODESTO,CA,144396,STANISLAUS CO OFFICE OF EDUC,School District,Public School District;,Consortium,884142
applicant,CA,17001496,Equitas Academy Charter School 4,School,New Construction School;Public School;,2723 W 8TH ST,LOS ANGELES,CA,17001496,Equitas Academy Charter School 4,School,New Construction School;Public School;,,
recipient,CA,17005448,Delhi Middle School,School,Public School;,16881 SCHENDEL AVE,DELHI,CA,144364,DELHI UNIFIED SCHOOL DISTRICT,School District,Public School District;,District,881644
recipient,CA,17011493,MANTECA COMMUNITY DAY SCHOOL (K-6),School,Public School;,737 W YOSEMITE AVE,MANTECA,CA,144381,MANTECA UNIFIED SCHOOL DISTRICT,School District,Public School District;,District,883646
recipient,CA,17011507,KID ZONE at BARNARD-WHITE,School,Public School;,725 WHIPPLE RD,UNION CITY,CA,144224,NEW HAVEN UNIF SCHOOL DISTRICT,School District,Public School District;,District,883721
recipient,CA,17011510,HERCULES HIGH SCHOOL,School,Public School;,1900 REFUGIO VALLEY RD,HERCULES,CA,144237,WEST CONTRA COSTA UN SCH DIST,School District,Public School District;,District,883846
recipient,CA,17011513,East County - Hillview (Pittsburg),School,Public School;,333 YOSEMITE DR,PITTSBURG,CA,144179,CONTRA COSTA COUNTY OFFICE OF EDUCATION,School District,Public School District;,Consortium,884083
applicant,CA,17011614,San Diego Workforce Innovation High School,School District,Public School District;,2 Euclid Avenue,National City,CA,17011614,San Diego Workforce Innovation High School,School District,Public School District;,,
recipient,CA,17011615,San Diego Workforce Innovation High School,School,Public School;,2 Euclid Avenue,Suites A-D,CA,17011614,San Diego Workforce Innovation High School,School District,Public School District;,,
applicant,CA,17011616,Orange County Workforce Innovation High School,School District,Public School District;,505 N Euclid St.,Anaheim,CA,17011616,Orange County Workforce Innovation High School,School District,Public School District;,,
recipient,CA,17011617,Orange County Workforce Innovation High School,School,Public School;,505 N EUCLID ST STE 100,ANAHEIM,CA,17011616,Orange County Workforce Innovation High School,School District,Public School District;,,
recipient,CA,17011648,Paradise eLearning Academy,School,Public School;,5911 MAXWELL DR,PARADISE,CA,144674,PARADISE UNIF SCHOOL DISTRICT,School District,Public School District;,District,883781
applicant,CA,17011716,GROWTH PUBLIC SCHOOLS (District),School District,Charter School District;Public School District;,#N/A,#N/A,#N/A,17011716,GROWTH PUBLIC SCHOOLS (District),School District,Charter School District;Public School District;,,
applicant,CA,17011754,GRIMMWAY SCHOOLS,School District,Public School District;,#N/A,#N/A,#N/A,17011754,GRIMMWAY SCHOOLS,School District,Public School District;,,
applicant,CA,17011782,Upper Lake Unified School District,School District,Public School District;,"675 Clover Valley Road,",Upper Lake,CA,17011782,Upper Lake Unified School District,School District,Public School District;,,
recipient,CA,17011783,CLOVER VALLEY HIGH SCHOOL,School,Public School;,820 CLOVER VALLEY RD,UPPER LAKE,CA,17011782,Upper Lake Unified School District,School District,Public School District;,,
recipient,CA,17011784,UPPER LAKE UNION HIGH SCHOOL,School,Public School;,675 CLOVER VALLEY RD,UPPER LAKE,CA,17011782,Upper Lake Unified School District,School District,Public School District;,,
recipient,CA,17011785,UPPER LAKE HIGH COMMUNITY DAY SCHOOL,School,Public School;,675 CLOVER VALLEY RD,UPPER LAKE,CA,17011782,Upper Lake Unified School District,School District,Public School District;,,
recipient,CA,17011788,UPPER LAKE ELEMENTARY SCHOOL,School,Public School;,679 2ND ST,UPPER LAKE,CA,17011782,Upper Lake Unified School District,School District,Public School District;,,
recipient,CA,17011789,UPPER LAKE MIDDLE SCHOOL,School,Public School;,725 OLD LUCERNE RD,UPPER LAKE,CA,17011782,Upper Lake Unified School District,School District,Public School District;,,
recipient,CA,17011792,GROWTH PUBLIC SCHOOLS (School),School,Charter School;Public School;,#N/A,#N/A,#N/A,17011716,GROWTH PUBLIC SCHOOLS (District),School District,Charter School District;Public School District;,,
recipient,CA,17011835,Pinnacle Academy Charter,School,Public School;,760 BROADWAY ST,KING CITY,CA,144099,SOUTH MONTEREY COUNTY HIGH SCHOOL DISTRICT,School District,Public School District;,District,883554
recipient,CA,17011852,Corona-Norco Alternative,School,Public School;,185 MAGNOLIA AVE,CORONA,CA,143597,CORONA-NORCO UNIF SCH DISTRICT,School District,Public School District;,District,883165
recipient,CA,17011862,Fulton & Alsbury Academy,School,Public School;,831 E. Avenue K-2,Lancaster,CA,144003,LANCASTER SCHOOL DISTRICT,School District,Public School District;,District,883588
recipient,CA,17011879,KIPP Valiant Community Prep,School,Charter School;New Construction School;Public School;,1404 Franklin Street,Oakland,CA,16046291,KIPP BAY AREA SCHOOLS,School District,Charter School District;Public School District;,OtherLocation,1027607
recipient,CA,17011903,Grimmway Academy Shafter,School,Public School;,#N/A,#N/A,#N/A,17011754,GRIMMWAY SCHOOLS,School District,Public School District;,,
applicant,CA,17011949,Oxford Day Academy,School,Charter School;Public School;,#N/A,#N/A,#N/A,17011949,Oxford Day Academy,School,Charter School;Public School;,,
recipient,CA,17012068,Mountain Empire Middle School,School,New Construction School;Public School;,7999 Forrest Gate Rd,Campo,CA,143627,MOUNTAIN EMPIRE UNIF DISTRICT,School District,Public School District;,District,883704
recipient,CA,17012138,KIPP CORAZON ACADEMY,School,Charter School;New Construction School;Public School;,#N/A,#N/A,#N/A,16045681,KIPP LA SCHOOLS,School District,Charter School District;Public School District;,OtherLocation,1026124
recipient,CA,17012210,Dr Bob Forinash Community Day,School,Public School;,4010 Jupiter Ave.,Lompoc,CA,143966,LOMPOC UNIFIED SCHOOL DISTRICT,School District,Public School District;,District,883622
recipient,CA,17012270,Pearlene Reese Headstart,School,Head Start;Public School;,5124 SOUTH AVE,EMPIRE,CA,144396,STANISLAUS CO OFFICE OF EDUC,School District,Public School District;,Consortium,884142
recipient,CA,17012351,LAKE ISABELLA COMMUNITY SCHOOL,School,ESA School;Public School;,6504 LAKE ISABELLA BLVD STE B,LAKE ISABELLA,CA,143934,KERN CO OFFICE OF EDUCATION,School District,ESA School District;Public School District;,Consortium,884091
recipient,CA,17012352,Aurora Learning Center,School,ESA School;Public School;,7900 NILES ST,BAKERSFIELD,CA,143934,KERN CO OFFICE OF EDUCATION,School District,ESA School District;Public School District;,Consortium,884091
applicant,CA,17012360,Raymond-Knowles Union Elementary,School District,Public School District;,31828 ROAD 600,RAYMOND,CA,17012360,Raymond-Knowles Union Elementary,School District,Public School District;,,
applicant,CA,17012375,MAAC Agency ,School District,Public School District;,#N/A,#N/A,#N/A,17012375,MAAC Agency ,School District,Public School District;,,
recipient,CA,17012395,CARMELO CHILD DEVELOPMENT CENTER,School,Public School;,8460 CARMEL VALLEY RD,CARMEL,CA,144094,Carmel Unified School District,School District,Public School District;,District,883058
recipient,CA,17012435,Sunset (Special Education),School,Public School;,800 North Tonopah Ave.,La Puente,CA,143577,HACIENDA LA PUENTE UNIF DIST,School District,Public School District;,District,883438
recipient,CA,17012538,Independence High School,School,Public School;,13451 N EXTENSION RD,LODI,CA,144356,Lodi Unified School District,School District,Public School District;,District,883618
recipient,CA,17012560,Walter J. Katnich Community Day School,School,Public School;,13451 N EXTENSION RD,LODI,CA,144356,Lodi Unified School District,School District,Public School District;,District,883618
recipient,CA,17012566,Educational Options ,School,Public School;,515 E 7TH ST,PERRIS,CA,143755,PERRIS UN HIGH SCHOOL DISTRICT,School District,Public School District;,District,883788
recipient,CA,17012597,Orchard Ranch Elementary School ,School,New Construction School;Public School;,4375 Brookstone Dr.,Roseville,CA,144582,ROSEVILLE CITY ELEM SCH DIST,School District,Charter School District;Public School District;,District,883863
recipient,CA,17012626,Keyes Head Start,School,Head Start;Public School;,4621 Nunes Rd,Turlock,CA,144376,KEYES UNION ELEM SCHOOL DIST,School District,Charter School District;Public School District;,District,883553
recipient,CA,17012661,Strathmore Community Day School,School,Public School;,19938 Rd 230,Strathmore,CA,143900,STRATHMORE UNION ELEM SCH DIST,School District,Public School District;,District,883975
recipient,CA,17012670,Laguna Ridge North Elementary School,School,Public School;,9880 Denali Circle,Elk Grove,CA,144549,ELK GROVE UNIF SCHOOL DISTRICT,School District,Public School District;,District,883271
recipient,CA,17012671,Anatolia II Elementary School ,School,Public School;,4350 Sophistry Drive,Rancho Cordova,CA,144549,ELK GROVE UNIF SCHOOL DISTRICT,School District,Public School District;,District,883271
applicant,CA,17012736,Girls Athletic Leadership School Los Angeles,School,Charter School;Public School;,15040 Roscoe Blvd,Panorama City,CA,17012736,Girls Athletic Leadership School Los Angeles,School,Charter School;Public School;,,
recipient,CA,17012787,HANSEN ELEMENTARY,School,New Construction School;Public School;,1400 S DURANT TERRACE,MOUNTAIN HOUSE,CA,144423,LAMMERSVILLE UNIFIED SCHOOL DIST,School District,Public School District;,District,882446
recipient,CA,17012826,Community School-Independent Alternative Education,School,Public School;,601 NORTH E STREET ,SAN BERNARDINO,CA,143738,SAN BERNARDINO COUNTY SUPERINTENDENT OF SCHOOLS,School District,Public School District;,Consortium,884118
recipient,CA,17012827,SAN BERNARDINO COUNTY SPECIAL EDUCATION,School,Public School;,601 NORTH E STREET ,SAN BERNARDINO,CA,143738,SAN BERNARDINO COUNTY SUPERINTENDENT OF SCHOOLS,School District,Public School District;,Consortium,884118
recipient,CA,17012894,Horizon Charter ,School,Charter School;Public School;,911 Reserve Drive,Roseville,CA,111411,HORIZON CHARTER SCHOOL,School District,Charter School District;Public School District;,School,996548
recipient,CA,17012895,Parterships for Student Centered Learning,School,Charter School;Public School;,3161 Dwight Road,Elk Grove,CA,111411,HORIZON CHARTER SCHOOL,School District,Charter School District;Public School District;,School,996548
recipient,CA,17012914,Audeo Charter School II,School,Charter School;Public School;,10170 Huennekens Street,San Diego,CA,104147,THE CHARTER SCHOOL OF SAN DIEGO DISTRICT,School District,Charter School District;Public School District;,OtherLocation,1026672
recipient,CA,17012919,Clovis Online Charter,School,Charter School;Public School;,1655 DAVID E COOK WAY,CLOVIS,CA,144027,CLOVIS UNIFIED SCHOOL DISTRICT,School District,Public School District;,District,883126
recipient,CA,17012970,Hamilton State Preschool,School,Public School;,290 Sixth St,Hamilton City,CA,16055109,HAMILTON UNIFIED SCHOOL DISTRICT,School District,Public School District;,District,882211
recipient,CA,17012976,Laton State Preschool,School,Public School;,"6045 East Mt. Whitney,",Laton,CA,143869,LATON UNIFIED SCH DIST,School District,Public School District;,District,883593
recipient,CA,17012978,Riverway Elementary School                       ,School,Public School;,1341 W Glendale Ave,Visalia ,CA,143931,VISALIA UNIFIED SCHOOL DISTRICT,School District,Charter School District;Public School District;,District,884027
recipient,CA,17013001,Santa Barbara County Juvenile Court,School,Public School;,4400 CATHEDRAL OAKS RD,SANTA BARBARA,CA,143836,SANTA BARBARA COUNTY EDUCATION OFFICE,School District,ESA School District;Public School District;,Consortium,884129
recipient,CA,17013006,John McCandless Charter II,School,Public School;,2020 W SWAIN RD,STOCKTON,CA,144346,LINCOLN UNIF SCHOOL DISTRICT,School District,Public School District;,District,883608
recipient,CA,17013022,West Arts Center (WAC),School,Public School;,10950 W MCKINLEY AVE,FRESNO,CA,144078,CENTRAL UNIFIED SCHOOL DIST,School District,Public School District;,District,883079
recipient,CA,17013024,Central Unified State Demonstration Pre- School,School,Public School;,56952 W Gettysburg AVE,Fresno,CA,144078,CENTRAL UNIFIED SCHOOL DIST,School District,Public School District;,District,883079
recipient,CA,17013077,Riverside County Head-Start,School,Head Start;Public School;,3939 13th St,Riverside,CA,143744,RIVERSIDE CO OFFICE OF EDUC,School District,Charter School District;Public School District;,Consortium,884112
recipient,CA,17013103,Spring Lake School,School,New Construction School;Public School;,2209 Miekle Ave.,Woodland,CA,144595,WOODLAND JOINT UNIF SCH DIST,School District,Public School District;,District,884070
recipient,CA,17013105,Grossmont Secondary School,School,Charter School;Public School;,10170 HUENNEKENS ST,SAN DIEGO,CA,104147,THE CHARTER SCHOOL OF SAN DIEGO DISTRICT,School District,Charter School District;Public School District;,OtherLocation,1026672
recipient,CA,17013107,Sweetwater Secondary School,School,Charter School;Public School;,10170 HUENNEKENS ST,SAN DIEGO,CA,104147,THE CHARTER SCHOOL OF SAN DIEGO DISTRICT,School District,Charter School District;Public School District;,OtherLocation,1026672
recipient,CA,17013135,Renaissance County Community,School,Public School;,14600 CERISE AVE,HAWTHORNE,CA,143472,LOS ANGELES CO OFFICE OF EDUC,School District,Public School District;,Consortium,884168
recipient,CA,17013152,NATOMAS PACIFIC PATHWAYS (PREP NTP ELEMENTARY ),School,Charter School;Public School;,4400 E COMMERCE WAY,SACRAMENTO,CA,144619,NATOMAS UNIFIED SCHOOL DIST,School District,Charter School District;Public School District;,District,881627
recipient,CA,17013153,PASO VERDE ELEMENTARY ,School,New Construction School;Public School;,3800 DEL PASO RD,SACRAMENTO,CA,144619,NATOMAS UNIFIED SCHOOL DIST,School District,Charter School District;Public School District;,District,881627
recipient,CA,17013170,Portola School,School,New Construction School;Public School;,1021 NAVELLIER ST,EL CERRITO,CA,144237,WEST CONTRA COSTA UN SCH DIST,School District,Public School District;,District,883846
recipient,CA,17013181,Circle of Independent Learning,School,Public School;,4700 Calaveras Avenue,Fremont,CA,144189,FREMONT UNIF SCHOOL DISTRICT,School District,Public School District;,District,883354
recipient,CA,17013227,Sequoia CDC,School,Public School;,3730 LINCOLN AVE,OAKLAND,CA,144227,OAKLAND UNIFIED SCHOOL DIST,School District,Charter School District;Public School District;,District,883745
recipient,CA,17013252,SHERMAN THOMAS STEM ACADEMY ,School,Charter School;Public School;,101 W ADELL ST,MADERA,CA,16035631,SHERMAN THOMAS CHARTER SCHOOLS,School District,Charter School District;Public School District;,School,956324
recipient,CA,17013262,NEW DESIGNS CHARTER SCHOOL-ADAMS,School,Charter School;Public School;,1342 W ADAMS BLVD,LOS ANGELES,CA,16082222,NEW DESIGNS CHARTER SCHOOLS,School District,Public School District;,OtherLocation,1028057
recipient,CA,17013268,New Designs Charter School-Adams,School,Public School;,1342 W ADAMS BLVD,LOS ANGELES,CA,16082222,NEW DESIGNS CHARTER SCHOOLS,School District,Public School District;,OtherLocation,1028057
recipient,CA,17013316,ESENCIA K-8 SCHOOL,School,Public School;,5 Aprender Street,Rancho Mission Viejo,CA,143774,CAPISTRANO UNIF SCHOOL DIST,School District,Charter School District;Public School District;,District,883052
recipient,CA,17013433,Global Learning Charter School,School,Public School;,1051 W ROBIN DR,VISALIA,CA,143931,VISALIA UNIFIED SCHOOL DISTRICT,School District,Charter School District;Public School District;,District,884027
recipient,CA,17013435,Celerity Himalia Charter School,School,Public School;,#N/A,#N/A,#N/A,17006823,CELERITY EDUCATIONAL GROUP,School District,Charter School District;Public School District;,OtherLocation,1082217
recipient,CA,17013436,Central Neighborhood Facilities ,School,Public School;,1133 E RHEA ST,LONG BEACH,CA,143528,LONG BEACH UNIF SCHOOL DIST,School District,Public School District;,District,883624
recipient,CA,17013471,GIRLS ACADEMIC LEADERSHIP ACADEMY ,School,Public School;,1067 WEST BLVD,LOS ANGELES,CA,143454,LOS ANGELES UNIFIED SCHOOL DISTRICT,School District,Public School District;,District,883628
recipient,CA,17013486,Celerity Rolas Charter School,School,Public School;,#N/A,#N/A,#N/A,17006823,CELERITY EDUCATIONAL GROUP,School District,Charter School District;Public School District;,OtherLocation,1082217
recipient,CA,17013504,K-8 SCHOOL # 5,School,New Construction School;Public School;,11626 FORSYTHIA SKYWAY,JARUPA VALLEY,CA,143747,JURUPA UNIFIED SCHOOL DISTRICT,School District,Public School District;,District,883545
recipient,CA,17013537,INDEPENDENCE CHARTER ACADEMY,School,Public School;,15350 RIVERVIEW ROAD,HELENDALE,CA,143720,HELENDALE SCHOOL DISTRICT,School District,Public School District;,District,883463
recipient,CA,17013538,Delores L. Whitley ,School,New Construction School;Public School;,2923 MCKEE RD,BAKERSFIELD,CA,143950,PANAMA-BUENA VISTA UN SCH DIST,School District,Public School District;,District,882989
recipient,CA,17013564,MIDDLE COLLEGE HIGH,School,Public School;,2101 MOORPARK AVE,SAN JOSE,CA,144329,SAN JOSE UNIF SCHOOL DISTRICT,School District,Public School District;,District,883885
recipient,CA,17013567,YOUTHBUILD CHARTER SCHOOL C,School,Public School;,155 W WASHINGTON BLVD STE 944,LOS ANGELES,CA,17003883,YouthBuild Charter School of California ,School District,Public School District;,OtherLocation,1075747
recipient,CA,17013568,YOUTHBUILD CHARTER SCHOOL D,School,Public School;,155 W WASHINGTON BLVD STE 944,LOS ANGELES,CA,17003883,YouthBuild Charter School of California ,School District,Public School District;,OtherLocation,1075747
recipient,CA,17013575,Gold Ridge Education Center,School,Public School;,12784 Justice Center Drive,Sonora,CA,144414,TUOLUMNE CO OFFICE OF EDUC,School District,ESA School District;Public School District;,Consortium,884151
recipient,CA,17013576,Shaws Flat Preschool,School,Public School;,21125 SHAWS FLAT SCHOOL RD,SONORA,CA,144414,TUOLUMNE CO OFFICE OF EDUC,School District,ESA School District;Public School District;,Consortium,884151
recipient,CA,17013586,ICEF Public Schools Training Center,School,Public School;,#N/A,#N/A,#N/A,16045041,ICEF Public Schools,School District,Public School District;,Consortium,1026945
recipient,CA,17013620,CCPA-Anaheim,School,Public School;,313 W CERRITOS AVE,ANAHEIM,CA,143765,ORANGE CO OFFICE OF EDUCATION,School District,Public School District;,Consortium,884108
recipient,CA,17013621,CCPA-San Juan,School,Public School;,31522 EL CAMINO REAL,SAN JUAN CAPISTRANO,CA,143765,ORANGE CO OFFICE OF EDUCATION,School District,Public School District;,Consortium,884108
recipient,CA,17013622,CCPA-Wilshire,School,Public School;,1715 E WILSHIRE AVE STE 714,SANTA ANA,CA,143765,ORANGE CO OFFICE OF EDUCATION,School District,Public School District;,Consortium,884108
recipient,CA,17013675,Transitional Learning Center  ,School,Public School;,1735 LAKE TAHOE BLVD,SOUTH LAKE TAHOE,CA,144806,LAKE TAHOE UNIF SCHOOL DIST,School District,Public School District;,District,883581
recipient,CA,17013676,Mt. Tallac High School  ,School,Public School;,1735 LAKE TAHOE BLVD,SOUTH LAKE TAHOE,CA,144806,LAKE TAHOE UNIF SCHOOL DIST,School District,Public School District;,District,883581
recipient,CA,17013686,GREEN VALLEY HIGH SCHOOL ROP,School,Public School;, 35948 Susan St,Yucaipa,CA,143728,R O P - COLTON-REDLANDS-YUCAIPA,School District,Public School District;,OtherLocation,1028028
recipient,CA,17013688,Delta Launch Charter,School,Public School;,16988 S HARLAN RD,LATHROP,CA,16027170,NEW JERUSALEM ELEMENTARY SCHOOL DISTRICT,School District,Public School District;,District,883723
recipient,CA,17013689,Stonegate Head Start,School,Head Start;Public School;,2545 SHERLOCK DR,SAN JOSE,CA,144333,SANTA CLARA CO OFFICE OF EDUCATION,School District,Charter School District;ESA School District;Public School District;,Consortium,884131
recipient,CA,17013690,Calaveras Head Start,School,Head Start;Public School;,1081 BUENA VISTA RD,HOLLISTER,CA,144333,SANTA CLARA CO OFFICE OF EDUCATION,School District,Charter School District;ESA School District;Public School District;,Consortium,884131
recipient,CA,17013704,NEEDLES COMMUNITY DAY,School,Public School;,109 F. St ,Needles,CA,143724,NEEDLES UNIFIED SCHOOL DISTRICT,School District,Public School District;,District,883718
applicant,CA,17013941,Clemente Holmes  Charter School ,School,Charter School;Public School;,#N/A,#N/A,#N/A,17013941,Clemente Holmes  Charter School ,School,Charter School;Public School;,,
applicant,CA,17014012,ALTA VISTA INNOVATION HIGH SCHOOL ,School,Public School;,11988 HESPERIA RD STE B,HESPERIA,CA,17014012,ALTA VISTA INNOVATION HIGH SCHOOL ,School,Public School;,,
applicant,CA,17014013,SAN BERNARDINO INNOVATION HIGH SCHOOL,School,Public School;,3505 HIGHLAND AVE,HIGHLAND,CA,17014013,SAN BERNARDINO INNOVATION HIGH SCHOOL,School,Public School;,,
applicant,CA,17014056,Alta Vista South II Charter,School,Charter School;Public School;,242 - 250 E BASE LINE RD,RIALTO,CA,17014056,Alta Vista South II Charter,School,Charter School;Public School;,,
applicant,CA,17014057,Crescent Valley II Charter,School,Charter School;Public School;,116 E MAIN ST STE 200,VISALIA,CA,17014057,Crescent Valley II Charter,School,Charter School;Public School;,,
applicant,CA,17014058,Crescent View South II Charter,School,Charter School;Public School;,4348 W SHAW AVE,FRESNO,CA,17014058,Crescent View South II Charter,School,Charter School;Public School;,,
applicant,CA,17014059,Diego Grande Charter,School,Charter School;Public School;,4585 COLLEGE AVE STE 4A,SAN DIEGO,CA,17014059,Diego Grande Charter,School,Charter School;Public School;,,
applicant,CA,17014060,Kings Valley II Charter,School,Charter School;Public School;,312 W 7TH ST STE 102,HANFORD,CA,17014060,Kings Valley II Charter,School,Charter School;Public School;,,
applicant,CA,17014061,Diego View Charter,School,Charter School;Public School;,312 W 7TH ST STE 102,HANFORD,CA,17014061,Diego View Charter,School,Charter School;Public School;,,
applicant,CA,17014082,Aspiranet,School,Public School;,#N/A,#N/A,#N/A,17014082,Aspiranet,School,Public School;,,
applicant,CA,17014112,New Millennium Secondary School,School,Charter School;Public School;,1301 W 182ND ST STE B,GARDENA,CA,17014112,New Millennium Secondary School,School,Charter School;Public School;,,
applicant,CA,17014127,"Intellectual Virtues Academy, A Long Beach High School",School,Charter School;Public School;,#N/A,#N/A,#N/A,17014127,"Intellectual Virtues Academy, A Long Beach High School",School,Charter School;Public School;,,
applicant,CA,17014162,Community Preparatory Academy,School,Charter School;Public School;,7511 RAYMOND AVE,LOS ANGELES,CA,17014162,Community Preparatory Academy,School,Charter School;Public School;,,
applicant,CA,17014163,Samueli Academy,School,Charter School;Public School;,#N/A,#N/A,#N/A,17014163,Samueli Academy,School,Charter School;Public School;,,
applicant,CA,17014225,DESERT TRAILS PREP ACADEMY,School,Charter School;Public School;,#N/A,#N/A,#N/A,17014225,DESERT TRAILS PREP ACADEMY,School,Charter School;Public School;,,
applicant,CA,17014516,Orange County Academy of Sciences and Arts,School,Charter School;Public School;,#N/A,#N/A,#N/A,17014516,Orange County Academy of Sciences and Arts,School,Charter School;Public School;,,
applicant,CA,17014540,Los Feliz Charter School for the Arts,School,Charter School;Public School;,#N/A,#N/A,#N/A,17014540,Los Feliz Charter School for the Arts,School,Charter School;Public School;,,
applicant,CA,17014976,Julian Charter School,School,Charter School;Public School;,1704 CAPE HORN avenue,Julian,CA,17014976,Julian Charter School,School,Charter School;Public School;,,
applicant,CO,93439,CHERRY CREEK ACADEMY,School,Public School;,6260 S DAYTON ST,ENGLEWOOD,CO,93439,CHERRY CREEK ACADEMY,School,Public School;,,
recipient,CO,16085079,STEM LAUNCH,School,Public School;,#N/A,#N/A,#N/A,142162,ADAMS 12 FIVE STAR SCHOOL DISTRICT,School District,Public School District;,District,882641
recipient,CO,17010481,Estes Park Options School,School,Public School;,1605 Brodie Ave,Estes Park,CO,142214,ESTES PARK SCHOOL DISTRICT R-3,School District,Public School District;,District,882080
recipient,CO,17011696,EASTBANK SCHOOL,School,New Construction School;Public School;,123 FLYING M RANCH ROAD,GLENWOOD SPRINGS,CO,142450,ROARING FORK SCHOOL DIST RE 1,School District,Public School District;,District,882154
recipient,CO,17011739,Early Beginnings,School,Public School;,812 N JAMAICA ST,AURORA,CO,142119,AURORA PUBLIC SCHOOLS,School District,Public School District;,District,881807
recipient,CO,17011740,AXL Aurora Expeditionary Learning Academy,School,Public School;,14100 EAST JEWEL AVENUE #21,AURORA,CO,142119,AURORA PUBLIC SCHOOLS,School District,Public School District;,District,881807
recipient,CO,17011741,FACILITIES WITH DISTRICT RUN EDUCATION,School,Public School;,82 AIRPORT BLVD,AURORA,CO,142119,AURORA PUBLIC SCHOOLS,School District,Public School District;,District,881807
recipient,CO,17011742,Global Village Academy East,School,Public School;,403 South Airport Boulevard,AURORA,CO,142119,AURORA PUBLIC SCHOOLS,School District,Public School District;,District,881807
recipient,CO,17011744,LOTUS SCHOOL FOR EXCELLENCE,School,Public School;,11001 E ALAMEDA AVE,AURORA,CO,142119,AURORA PUBLIC SCHOOLS,School District,Public School District;,District,881807
recipient,CO,17011854,TELLURIDE INTERMEDIATE SCHOOL,School,Public School;,725 W COLORADO AVE,TELLURIDE,CO,142443,TELLURIDE SCHOOL DISTRICT R 1,School District,Public School District;,District,882627
recipient,CO,17011855,LEAP School,School,Public School;,950 N. Cleveland Ave,Loveland,CO,142221,THOMPSON SCHOOL DISTRICT R-2J,School District,Public School District;,District,882386
recipient,CO,17012205,South West Elementary,School,Charter School;New Construction School;Public School;,2480 West 26th Avenue,Denver,CO,142154,DENVER SCHOOL DISTRICT 1,School District,Public School District;,District,882007
recipient,CO,17012215,Far North East Elementary,School,Charter School;New Construction School;Public School;,2480 West 26th Avenue,DENVER,CO,142154,DENVER SCHOOL DISTRICT 1,School District,Public School District;,District,882007
applicant,CO,17012398,Great Work Montessori School,School,Charter School;Public School;,5300 W CENTER AVE,LAKEWOOD,CO,17012398,Great Work Montessori School,School,Charter School;Public School;,,
recipient,CO,17012679,Rose Stein Elementary ,School,Charter School;New Construction School;Public School;,#N/A,#N/A,#N/A,145710,Jefferson County School District R-1,School District,Public School District;,District,882257
recipient,CO,17012680,Three Creeks K-8 ,School,New Construction School;Public School;,#N/A,#N/A,#N/A,145710,Jefferson County School District R-1,School District,Public School District;,District,882257
recipient,CO,17012851,Anthem (New School #33),School,New Construction School;Public School;,#N/A,#N/A,#N/A,142162,ADAMS 12 FIVE STAR SCHOOL DISTRICT,School District,Public School District;,District,882641
recipient,CO,17012892,Bollman Technical Education Center,School,Public School;,#N/A,#N/A,#N/A,142162,ADAMS 12 FIVE STAR SCHOOL DISTRICT,School District,Public School District;,District,882641
recipient,CO,17013182,DENVER MONTESSORI JUNIOR-SENIOR HIGH SCHOOL,School,Charter School;Public School;,4250 SHOSHONE ST,DENVER,CO,142154,DENVER SCHOOL DISTRICT 1,School District,Public School District;,District,882007
recipient,CO,17013183,DR. MARTIN LUTHER KING JR. EARLY COLLEGE,School,Charter School;Public School;,19535 E 46TH AVE,DENVER,CO,142154,DENVER SCHOOL DISTRICT 1,School District,Public School District;,District,882007
recipient,CO,17013185,KEPNER BEACON MIDDLE SCHOOL,School,Charter School;Public School;,911 S HAZEL CT,DENVER,CO,142154,DENVER SCHOOL DISTRICT 1,School District,Public School District;,District,882007
recipient,CO,17013186,MARIE L. GREENWOOD ACADEMY,School,Charter School;Public School;,5130 DURHAM CT,DENVER,CO,142154,DENVER SCHOOL DISTRICT 1,School District,Public School District;,District,882007
recipient,CO,17013189,NORTH HIGH SCHOOL ENGAGEMENT CENTER,School,Charter School;Public School;,2960 N SPEER BLVD,DENVER,CO,142154,DENVER SCHOOL DISTRICT 1,School District,Public School District;,District,882007
recipient,CO,17013190,RESPECT ACADEMY AT LINCOLN,School,Charter School;Public School;,2285 S FEDERAL BLVD,DENVER,CO,142154,DENVER SCHOOL DISTRICT 1,School District,Public School District;,District,882007
recipient,CO,17013706,Rocky Mountain Prep,School,Public School;,10455 E 25TH AVE,AURORA,CO,142119,AURORA PUBLIC SCHOOLS,School District,Public School District;,District,881807
recipient,CO,17013707,Global Village Academy West,School,New Construction School;Public School;,16401 E ALAMEDA PL,AURORA,CO,142119,AURORA PUBLIC SCHOOLS,School District,Public School District;,District,881807
recipient,CT,6043,BETHANY COMMUNITY SCHOOL,School,Public School;,44 PECK RD,BETHANY,CT,122545,BETHANY BOARD OF EDUCATION,School District,Public School District;,District,884161
recipient,CT,166082,SHEPAUG VALLEY HIGH SCHOOL,School,Public School;,159 SOUTH STREET,WASHINGTON,CT,122597,REGIONAL SCHOOL DISTRICT 12,School District,Public School District;,District,884293
recipient,CT,17011022,Loveland Hill School,School,Public School;,70 LOVELAND HILL RD,VERNON,CT,122288,VERNON SCHOOL DISTRICT,School District,Public School District;,District,884335
recipient,CT,17012060,Learning Academy at Bloomfield ,School,Public School;,20 Sargeant St. ,Heartford,CT,122240,BLOOMFIELD PUBLIC SCHOOLS,School District,Public School District;,District,884166
applicant,CT,17012170,Marlborough School District,School District,Public School District;,25 SCHOOL DR MARLBOROUGH,HARTFORD,CT,17012170,Marlborough School District,School District,Public School District;,,
recipient,CT,17012204,AccessGertrude Fielding Learning Center,School,Public School;,103 MIRY BROOK RD,DANBURY,CT,122573,EDUCATION CONNECTION,School District,Public School District;,Consortium,884290
recipient,CT,17012207,Raise Academy,School,Public School;,75 Chatfield Street ,Derby,CT,122463,DERBY SCHOOL DISTRICT,School District,Public School District;,District,884214
recipient,CT,17012481,NEW ORCHARD HILL,School,Public School;,380 FOSTER ST,SOUTH WINDSOR,CT,122299,SOUTH WINDSOR PUBLIC SCHOOLS,School District,Public School District;,District,884319
recipient,CT,17012995,Career & Craftsmanship Alternative School,School,Public School;,418 KOSSUTH ST FL B,BRIDGEPORT,CT,122549,BRIDGEPORT SCHOOL DISTRICT,School District,Public School District;,District,884177
applicant,CT,17013255,Stamford Academy Charter School,School,Public School;,229 NORTH ST,STAMFORD,CT,17013255,Stamford Academy Charter School,School,Public School;,,
applicant,CT,17013256,Trailblazers Academy Charter School,School,Charter School;Public School;, 83 Lockwood Avenue,Stamford,CT,17013256,Trailblazers Academy Charter School,School,Charter School;Public School;,,
recipient,CT,17013395,CREC Museum Academy-Turkey Hill,School,Public School;,#N/A,#N/A,#N/A,122328,CAPITOL REGION EDUC COUNCIL,School District,Public School District;,Consortium,884193
recipient,CT,17013550,LULAC Observatory,School,Head Start;Public School;,400 CANNER ST,NEW HAVEN,CT,16063638,LULAC HEAD START INC,School District,Public School District;,OtherLocation,1003360
recipient,CT,17013552,LULAC East Haven,School,Head Start;Public School;,54 GERRISH AVE,EAST HAVEN,CT,16063638,LULAC HEAD START INC,School District,Public School District;,OtherLocation,1003360
recipient,CT,17013555,LULAC State Street,School,Head Start;Public School;,1000 STATE ST,NEW HAVEN,CT,16063638,LULAC HEAD START INC,School District,Public School District;,OtherLocation,1003360
recipient,DC,21633,MACFARLAND MIDDLE SCHOOL,School,Public School;,4400 IOWA AVE NW,WASHINGTON,DC,126340,DISTRICT OF COLUMBIA PUB SCHS,School District,Public School District;,District,884755
recipient,DC,17010411,The Learning Center,School,Public School;,#N/A,#N/A,#N/A,226975,KIPP DC,School District,Charter School District;Public School District;,District,884756
recipient,DC,17013111,MCKINLEY MIDDLE SCHOOL,School,Public School;,151 T ST NE,WASHINGTON,DC,126340,DISTRICT OF COLUMBIA PUB SCHS,School District,Public School District;,District,884755
recipient,FL,37616,LOPEZ EXCEPTIONAL CENTER,School,Public School;,315 E Old Hillsborough Ave,SEFFNER,FL,127779,HILLSBOROUGH CO SCHOOL DIST,School District,Charter School District;Public School District;,District,889004
recipient,FL,37666,BT WASHINGTON ELEMENTARY,School,Public School;,1407 ESTELLE ST,TAMPA,FL,127779,HILLSBOROUGH CO SCHOOL DIST,School District,Charter School District;Public School District;,District,889004
recipient,FL,37681,STEWART MIDDLE SCHOOL,School,Public School;,1125 W SPRUCE ST,TAMPA,FL,127779,HILLSBOROUGH CO SCHOOL DIST,School District,Charter School District;Public School District;,District,889004
recipient,FL,38262,NORTH MYERS ACADEMY FOR THE ARTS - ELEMENTARY,School,Public School;,1856 Arts Way,North Fort Myers,FL,127832,LEE COUNTY SCHOOL DISTRICT,School District,Public School District;,District,889011
recipient,FL,203968,LOMAX ELEMENTARY SCHOOL,School,Public School;,4207 26TH STREET,TAMPA,FL,127779,HILLSBOROUGH CO SCHOOL DIST,School District,Charter School District;Public School District;,District,889004
recipient,FL,224827,RANDALL MIDDLE SCHOOL,School,Public School;,16510 FISHHAWKE BLVD,LITIA,FL,127779,HILLSBOROUGH CO SCHOOL DIST,School District,Charter School District;Public School District;,District,889004
recipient,FL,16078769,PALM ACRES CHARTER HIGH SCHOOL,School,Charter School;Public School;,#N/A,#N/A,#N/A,16038929,CITY OF PALMS CHARTER HIGH SCHOOL,School District,Charter School District;Public School District;,School,905398
recipient,FL,17004858,Hospital Homebound,School,Public School;,1817 E. University Ave.,Gainesville ,FL,127655,ALACHUA COUNTY SCHOOL DISTRICT,School District,Public School District;,District,888974
recipient,FL,17006971,CITY OF PALMS CHARTER HIGH SCHOOL,School,Charter School;Public School;,#N/A,#N/A,#N/A,16038929,CITY OF PALMS CHARTER HIGH SCHOOL,School District,Charter School District;Public School District;,School,905398
recipient,FL,17006972,Northern Palms Charter High School,School,Charter School;Public School;,#N/A,#N/A,#N/A,16038929,CITY OF PALMS CHARTER HIGH SCHOOL,School District,Charter School District;Public School District;,School,905398
applicant,FL,17008002,"KIDS COMMUNITY COLLEGE HIGH SCHOOL, INC.",School,Charter School;New Construction School;Public School;,#N/A,#N/A,#N/A,17008002,"KIDS COMMUNITY COLLEGE HIGH SCHOOL, INC.",School,Charter School;New Construction School;Public School;,,
applicant,FL,17008734,FLORIDA FUTURES ACADEMY,School,Charter School;Public School;,#N/A,#N/A,#N/A,17008734,FLORIDA FUTURES ACADEMY,School,Charter School;Public School;,,
recipient,FL,17011639,Southwest Florida Public Service Academy,School,Public School;,4312 MICHIGAN AVE,FORT MYERS,FL,127832,LEE COUNTY SCHOOL DISTRICT,School District,Public School District;,District,889011
recipient,FL,17011723,SCHOOL FOR ADVANCED STUDIES-WEST,School,Public School;,3800 NW 115TH AVE,DORAL,FL,127722,127722 - MIAMI-DADE COUNTY PUBLIC SCHOOLS,School District,Public School District;,District,888987
recipient,FL,17011724,West Lakes Preparatory Academy ,School,Public School;,13835 NW 97TH AVE,HIALEAH,FL,127722,127722 - MIAMI-DADE COUNTY PUBLIC SCHOOLS,School District,Public School District;,District,888987
recipient,FL,17011738,Success Academy,School,Public School;,3650 Michigan Avenue,Fort Myers,FL,127832,LEE COUNTY SCHOOL DISTRICT,School District,Public School District;,District,889011
recipient,FL,17012001,PLATO ACADEMY SCHOOLS - CLEARWATER,School,Charter School;Public School;,2045 PALMETTO STREET,CLEARWATER,FL,16036922,PLATO ACADEMY CHARTER SCHOOL,School District,Charter School District;Public School District;,School,916039
recipient,FL,17012002,PLATO ACADEMY SCHOOLS - PINELLAS PARK,School,Charter School;Public School;,9200 49TH ST N,PINELAS PARK,FL,16036922,PLATO ACADEMY CHARTER SCHOOL,School District,Charter School District;Public School District;,School,916039
recipient,FL,17012003,PLATO ACADEMY SCHOOLS - TRINITY,School,Charter School;Public School;,8812 OLD COUNTRY RD 54,NEW PORT RICHEY,FL,16036922,PLATO ACADEMY CHARTER SCHOOL,School District,Charter School District;Public School District;,School,916039
applicant,FL,17012092,Innovation Charter School,School,Charter School;Public School;,#N/A,#N/A,#N/A,17012092,Innovation Charter School,School,Charter School;Public School;,,
applicant,FL,17012172,AcadeMir Preparatory Academy,School,Charter School;Public School;,#N/A,#N/A,#N/A,17012172,AcadeMir Preparatory Academy,School,Charter School;Public School;,,
applicant,FL,17012173,AcadeMir Charter School Preparatory,School,Charter School;Public School;,#N/A,#N/A,#N/A,17012173,AcadeMir Charter School Preparatory,School,Charter School;Public School;,,
applicant,FL,17012333,Imagine Schools Plantation Campus,School,Public School;,8200 PETERS RD,PLANTATION,FL,17012333,Imagine Schools Plantation Campus,School,Public School;,,
applicant,FL,17012456,ICAN LIGHTHOUSE CHARTER SCHOOL,School,Charter School;Public School;,29140 CHAPEL PARK DR,WESLEY CHAPEL,FL,17012456,ICAN LIGHTHOUSE CHARTER SCHOOL,School,Charter School;Public School;,,
recipient,FL,17012550,SITE 21-M-E-2,School,New Construction School;Public School;,#N/A,#N/A,#N/A,127681,ORANGE COUNTY SCHOOL DISTRICT,School District,Public School District;,District,889027
recipient,FL,17012551,SITE 44-E-SE-2,School,New Construction School;Public School;,#N/A,#N/A,#N/A,127681,ORANGE COUNTY SCHOOL DISTRICT,School District,Public School District;,District,889027
recipient,FL,17012552,SITE 52-M-SE-2,School,New Construction School;Public School;,#N/A,#N/A,#N/A,127681,ORANGE COUNTY SCHOOL DISTRICT,School District,Public School District;,District,889027
recipient,FL,17012553,WINDERMERE HIGH SCHOOL,School,New Construction School;Public School;,#N/A,#N/A,#N/A,127681,ORANGE COUNTY SCHOOL DISTRICT,School District,Public School District;,District,889027
recipient,FL,17012610,Bexley Elementary School ,School,Public School;,4380 Ballantrae Blvd,Land O’ Lakes,FL,127873,PASCO COUNTY SCHOOL DISTRICT,School District,Public School District;,District,889030
recipient,FL,17012614,Cypress Creek Middle High School,School,Public School;,8701 OLD PASCO RD,WESLEY CHAPEL,FL,127873,PASCO COUNTY SCHOOL DISTRICT,School District,Public School District;,District,889030
recipient,FL,17012655,Riverview Learning Center,School,Public School;,801 N WILD OLIVE AVE,DAYTONA BEACH,FL,127575,SCHOOL DISTRICT OF VOLUSIA COUNTY,School District,Public School District;,District,889044
recipient,FL,17012662,Achieve Center of Pasco,School,Public School;,18950 MICHIGAN LN,SPRING HILL,FL,127873,PASCO COUNTY SCHOOL DISTRICT,School District,Public School District;,District,889030
applicant,FL,17012705,Osceola Science Charter School ,School,Charter School;Public School;,#N/A,#N/A,#N/A,17012705,Osceola Science Charter School ,School,Charter School;Public School;,,
recipient,FL,17012777,SITE 84-E-W-4,School,New Construction School;Public School;,#N/A,#N/A,#N/A,127681,ORANGE COUNTY SCHOOL DISTRICT,School District,Public School District;,District,889027
recipient,FL,17012881,DAVID LAWRENCE JR PLC,School,Public School;,12175 NE 12TH CT,NORTH MIAMI,FL,127722,127722 - MIAMI-DADE COUNTY PUBLIC SCHOOLS,School District,Public School District;,District,888987
recipient,FL,17013226,ACADMEY ,School,Public School;,18300 COCHRAN BLVD,PORT CHARLOTTE,FL,127835,CHARLOTTE COUNTY SCHOOL DIST,School District,Public School District;,District,888982
recipient,FL,17013257,Collier Charter Academy,School,Charter School;Public School;,12101 Immokalee Rd,Naples,FL,16056854,CHARTER SCHOOLS USA,School District,Charter School District;Public School District;,OtherLocation,1049361
recipient,FL,17013258,Duval Charter School at Coastal,School,Charter School;Public School;,12800 BEACH BLVD,JACKSONVILLE,FL,16056854,CHARTER SCHOOLS USA,School District,Charter School District;Public School District;,OtherLocation,1049361
recipient,FL,17013259,Renaissance Charter School at Boggy Creek,School,Charter School;Public School;,4480 BOGGY CREEK RD,KISSIMMEE,FL,16056854,CHARTER SCHOOLS USA,School District,Charter School District;Public School District;,OtherLocation,1049361
recipient,FL,17013260,Waterset Charter School,School,Charter School;Public School;,210 APOLLO BEACH BLVD,APOLLO BEACH,FL,16056854,CHARTER SCHOOLS USA,School District,Charter School District;Public School District;,OtherLocation,1049361
recipient,FL,17013261,Mevers School of Excellence,School,Charter School;Public School;,7750 Henry E. Brown Blvd,Goose Creek,SC,16056854,CHARTER SCHOOLS USA,School District,Charter School District;Public School District;,OtherLocation,1049361
applicant,FL,17013936,Avalon Park,School,Charter School;Public School;,6340 SUNSET DR,MIAMI,FL,17013936,Avalon Park,School,Charter School;Public School;,,
applicant,FL,17013937,Bright Futures - Lighthouse Campus,School,Charter School;Public School;,757 LIGHTHOUSE DR,NORTH PALM BEACH,FL,17013937,Bright Futures - Lighthouse Campus,School,Charter School;Public School;,,
applicant,FL,17013938,Mater Bay ,School,Charter School;Public School;,22025 SW 87TH AVE,CUTLER BAY,FL,17013938,Mater Bay ,School,Charter School;Public School;,,
applicant,FL,17013939,Master Palms,School,Charter School;Public School;,401 POINCIANA CIR,KISSIMMEE,FL,17013939,Master Palms,School,Charter School;Public School;,,
applicant,FL,17013940,Pinecrest Lakes,School,Charter School;Public School;,14012 OLD HIGHWAY 50,CLERMONT,FL,17013940,Pinecrest Lakes,School,Charter School;Public School;,,
applicant,FL,17013942,SLAM Tampa,School,Charter School;Public School;,7116 GUNN HWY,TAMPA,FL,17013942,SLAM Tampa,School,Charter School;Public School;,,
applicant,FL,17013943,Somerset Jefferson,School,Charter School;Public School;,#N/A,#N/A,#N/A,17013943,Somerset Jefferson,School,Charter School;Public School;,,
applicant,FL,17013950,SLAM North Miami Beach,School,Charter School;Public School;,16601 NE 15th Ave,North Miami Beach,FL,17013950,SLAM North Miami Beach,School,Charter School;Public School;,,
applicant,FL,17013951,Somerset JFK,School,Charter School;Public School;,4696 DAVIS RD,LAKE WORTH,FL,17013951,Somerset JFK,School,Charter School;Public School;,,
applicant,FL,17013952,Somerset St. Lucie (Imagine),School,Charter School;Public School;,4402 SW YAMADA DR,PORT ST LUCIE,FL,17013952,Somerset St. Lucie (Imagine),School,Charter School;Public School;,,
applicant,FL,17013953,University Preparatory Academy,School,Charter School;Public School;,2101 N AUSTRALIAN AVE,WEST PALM BEACH,FL,17013953,University Preparatory Academy,School,Charter School;Public School;,,
applicant,FL,17014046,INTEGRITY TABERNACLE CHRISTIAN ACADEMY ,School,Public School;,#N/A,#N/A,#N/A,17014046,INTEGRITY TABERNACLE CHRISTIAN ACADEMY ,School,Public School;,,
applicant,FL,17014128,ACADEMIC SOLUTIONS ACADEMCY-A,School,Charter School;Public School;,#N/A,#N/A,#N/A,17014128,ACADEMIC SOLUTIONS ACADEMCY-A,School,Charter School;Public School;,,
applicant,FL,17014338,Kids Community College Southeast Middle Charter School ,School,Charter School;Public School;,#N/A,#N/A,#N/A,17014338,Kids Community College Southeast Middle Charter School ,School,Charter School;Public School;,,
recipient,GA,33258,WHEELER COUNTY MIDDLE SCHOOL,School,Public School;,50 SNOWHILL RD,ALAMO,GA,127330,WHEELER COUNTY SCHOOL DISTRICT,School District,Public School District;,District,890031
recipient,GA,17003642,Martha Ellen Stilwell School for the Performing Arts,School,Public School;,2580 MOUNT ZION PKWY,JONESBORO,GA,127308,CLAYTON COUNTY PUBLIC SCHOOLS,School District,Public School District;,District,889888
recipient,GA,17003659,PERFORMANCE LEARNING CENTER,School,Public School;,1740 WALTON WAY,AUGUSTA,GA,127418,RICHMOND COUNTY SCHOOL DIST,School District,Public School District;,District,889993
recipient,GA,17003662,Sumter County Intermediate School,School,Public School;,439 BUMPHEAD RD,AMERICUS,GA,127503,SUMTER COUNTY SCHOOLS,School District,Public School District;,District,890002
applicant,GA,17011755,WESTSIDE ATLANTA CHARTER SCHOOL,School District,Charter School District;Public School District;,#N/A,#N/A,#N/A,17011755,WESTSIDE ATLANTA CHARTER SCHOOL,School District,Charter School District;Public School District;,,
recipient,GA,17011837,INTERNATIONAL TRANSITION CENTER,School,Public School;,52 Gwinnett Drive,Lawrenceville,GA,127274,GWINNETT COUNTY PUBLIC SCHOOLS,School District,Charter School District;Public School District;,District,889931
recipient,GA,17011842,Clarke County Career Academy,School,New Construction School;Public School;,440 DEARING EXT BLDG 1,ATHENS,GA,127374,CLARKE COUNTY SCHOOL DISTRICT,School District,Public School District;,District,889886
recipient,GA,17011877,Clarke County Transient School,School,Public School;,280 Gaines School Road,Athens,GA,127374,CLARKE COUNTY SCHOOL DISTRICT,School District,Public School District;,District,889886
recipient,GA,17012578,Zebulon High School,School,Public School;,7360 HIGHWAY 19 S,ZEBULON,GA,127315,Pike County School District,School District,Public School District;,District,889984
recipient,GA,17012609,PARKWAY ELEMENTARY SCHOOL ,School,Public School;,2660 WILLIAM FEW PKWY,EVANS,GA,127408,COLUMBIA COUNTY BOARD OF EDUCATION,School District,Public School District;,District,889893
recipient,GA,17012673,TUSKEGEE AIRMEN GLOBAL ACADEMY,School,Public School;,654 ALVARADO TERRACE SW,ATLANTA,GA,127319,ATLANTA PUBLIC SCHOOLS,School District,Public School District;,District,889837
recipient,GA,17012675,WOODSON PARK ACADEMY,School,Public School;,20 EVELYN WAY NW,ATLANTA,GA,127319,ATLANTA PUBLIC SCHOOLS,School District,Public School District;,District,889837
recipient,GA,17012681,MICHAEL HOLLIS INNOVATION ACADEMY,School,Public School;,225 JAMES P BRAWLEY DR SW,ATLANTA,GA,127319,ATLANTA PUBLIC SCHOOLS,School District,Public School District;,District,889837
recipient,GA,17012890,Greene County Pre-K,School,Public School;,1100 WITCHER ST,UNION POINT,GA,127380,Greene County School District,School District,Charter School District;Public School District;,District,889929
recipient,GA,17013193,Burwell GNETS,School,Public School;,307 FORT DR,LAGRANGE,GA,127310,TROUP COUNTY SCHOOL SYSTEM,School District,Charter School District;Public School District;,District,889810
recipient,GA,17013484,New Appling Middle School,School,New Construction School;Public School;,1221 Shurling Drive,Macon,GA,127456,BIBB COUNTY PUBLIC SCHOOLS,School District,Public School District;,District,889862
recipient,GA,17013485,New Northeast High School,School,New Construction School;Public School;,1657 Upper River Road,Macon,GA,127456,BIBB COUNTY PUBLIC SCHOOLS,School District,Public School District;,District,889862
recipient,GA,17013695,New Austin Elementary School,School,Public School;,5435 ROBERTS DR,DUNWOODY,GA,127271,DEKALB COUNTY SCHOOL DISTRICT,School District,Public School District;,District,889904
recipient,GA,17013696,New Pleasantdale Elementary School,School,Public School;,3695 NORTHLAKE DR,DORAVILLE,GA,127271,DEKALB COUNTY SCHOOL DISTRICT,School District,Public School District;,District,889904
applicant,GA,17013734,RESURGENCE HALL,School,Charter School;Public School;,1743 HARDIN AVE,COLLEGE PARK,GA,17013734,RESURGENCE HALL,School,Charter School;Public School;,,
recipient,IA,17011950,Alternative High School,School,Public School;,19 N ILLINOIS AVE,MASON CITY,IA,131987,MASON CITY COMM SCHOOL DIST,School District,Public School District;,District,894362
recipient,IA,17012364,HERITAGE ELEMENTARY ,School,New Construction School;Public School;,500 NE Beaverbrooke BLVD ,Grimes,IA,131846,DALLAS CENTER-GRIMES SCH DIST,School District,Public School District;,District,894241
recipient,IA,17012624,Liberty High School,School,New Construction School;Public School;,1400 S DUBUQUE ST,NORTH LIBERTY,IA,132539,IOWA CITY COMM SCHOOL DISTRICT,School District,Public School District;,District,894321
recipient,IA,17012625,East Herbert Hoover Elementary ,School,New Construction School;Public School;,1355 BARRINGTON RD,IOWA CITY,IA,132539,IOWA CITY COMM SCHOOL DISTRICT,School District,Public School District;,District,894321
recipient,IA,17013709,East Union Elementary,School,Public School;,1916 HIGH SCHOOL DR,AFTON,IA,132221,EAST UNION COMMUNITY SCH DIST,School District,Public School District;,District,894266
recipient,ID,16074777,IDAHO NATIONAL GUARD YOUTH CHALLENGE ACADEMY,School,Public School;,#N/A,#N/A,#N/A,142691,OROFINO JT SCHOOL DISTRICT 171,School District,Public School District;,District,895476
recipient,ID,17003398,L&C Chestnut St. Center,School,Head Start;Public School;,1260 Chestnut St,Clarkston ,WA,17002551,Lewis & Clark Early Childhood Program,School District,Public School District;,OtherLocation,1082257
recipient,ID,17003399,L&C Fair Street Center,School,Head Start;Public School;,1483 Fair St,Clarkston ,WA,17002551,Lewis & Clark Early Childhood Program,School District,Public School District;,OtherLocation,1082257
recipient,ID,17003646,L&C Craigmont Center,School,Head Start;Public School;,213 West Main St,Craigmont,ID,17002551,Lewis & Clark Early Childhood Program,School District,Public School District;,OtherLocation,1082257
recipient,ID,17003647,L&C Grangeville Center,School,Head Start;Public School;,400 S IDAHO AVE,GRANGEVILLE,ID,17002551,Lewis & Clark Early Childhood Program,School District,Public School District;,OtherLocation,1082257
recipient,ID,17003648,L&C Whitman Center,School,Head Start;Public School;,1840 9TH AVE,LEWISTON,ID,17002551,Lewis & Clark Early Childhood Program,School District,Public School District;,OtherLocation,1082257
recipient,ID,17003650,L&C Kamiah Center,School,Head Start;Public School;,1319 HILL ST,KAMIAH,ID,17002551,Lewis & Clark Early Childhood Program,School District,Public School District;,OtherLocation,1082257
recipient,ID,17003652,L&C Moscow Center,School,Head Start;Public School;,514 NORTHWOOD DR,MOSCOW,ID,17002551,Lewis & Clark Early Childhood Program,School District,Public School District;,OtherLocation,1082257
recipient,ID,17003653,L&C Orofino Center,School,Head Start;Public School;,143 Bartlett Street,Orofino,ID,17002551,Lewis & Clark Early Childhood Program,School District,Public School District;,OtherLocation,1082257
recipient,ID,17003654,L&C Weippe Center,School,Head Start;Public School;,220 N MAIN ST,WEIPPE,ID,17002551,Lewis & Clark Early Childhood Program,School District,Public School District;,OtherLocation,1082257
recipient,ID,17011693,Hayden Center Elementary School,School,New Construction School;Public School;,9650 N Government Way,Hayden,ID,142762,COEUR D'ALENE SCHOOL DIST 271,School District,Public School District;,District,895415
recipient,ID,17012179,ISUCCEED VIRTUAL HIGH SCHOOL,School,Public School;,6148 N DISCOVERY WAY STE 120,BOISE,ID,16053540,ISUCCEED VIRTUAL HIGH SCHOOL,School District,Charter School District;Public School District;,District,895375
recipient,ID,17012387,South Hills Middle School,School,New Construction School;Public School;,1550 Harrison Street South,Twin Falls,ID,142609,TWIN FALLS SCHOOL DISTRICT 411,School District,Public School District;,District,895498
recipient,ID,17013680,Ridgevue High School,School,New Construction School;Public School;,18800 MADISON RD,NAMPA,ID,142695,VALLIVUE SCHOOL DISTRICT 139,School District,Public School District;,District,895409
recipient,ID,17013681,Skyway Elementary School,School,New Construction School;Public School;,19430 WARD LN,CALDWELL,ID,142695,VALLIVUE SCHOOL DISTRICT 139,School District,Public School District;,District,895409
recipient,IL,72379,MARK TWAIN ELEMENTARY SCHOOL,School,Public School;,907 MILTON RD,ALTON,IL,136353,ALTON COMM UNIT SCHOOL DIST 11,School District,Public School District;,District,900891
recipient,IL,72383,HORACE MANN ELEMENTARY SCHOOL,School,Public School;,2708 EDWARDS ST,ALTON,IL,136353,ALTON COMM UNIT SCHOOL DIST 11,School District,Public School District;,District,900891
recipient,IL,73041,MORRISONVILLE HIGH SCHOOL,School,Public School;,201 SCHOOL STREET,MORRISONVILLE,IL,136607,MORRISONVILLE C U SCH DIST 1,School District,Public School District;,District,901442
recipient,IL,17008340,Ridgeview Elementary School,School,Public School;,3903 West Ridgeview Drive,Peoria,IL,136125,DUNLAP SCHOOL DISTRICT 323,School District,Public School District;,District,901093
recipient,IL,17011515,Sangamon Safe School Program,School,Public School;,2201 TORONTO RD,SPRINGFIELD,IL,136693,REGIONAL OFF OF ED SANGAMON,School District,Public School District;,OtherLocation,1056532
recipient,IL,17011733,Crossroads Learning Center,School,Public School;,30 N CENTRAL PARK PLZ,JACKSONVILLE,IL,136658,JACKSONVILLE SCHOOL DIST 117,School District,Public School District;,District,901272
recipient,IL,17012356,OKAW Area Vocational Center,School,Public School;,1109 N 8TH ST,VANDALIA,IL,136584,VANDALIA SCHOOL DISTRICT 203,School District,Public School District;,District,901749
recipient,IL,17012774,Newcomer Center,School,Public School;,2121 S GOEBBERT RD,ARLINGTON HEIGHTS,IL,135212,TOWNSHIP HIGH SCHOOL DIST 214,School District,Public School District;,District,900908
recipient,IL,17013124,Thurgood Marshall Elementary ,School,Public School;,4704 N ROCKTON AVE,ROCKFORD,IL,135924,ROCKFORD SCHOOL DISTRICT 205,School District,Public School District;,District,901628
recipient,IL,17013349,The Center for Alternative Learning,School,New Construction School;Public School;,1601 WENTWORTH AVE,CALUMET CITY,IL,135501,THORNTON FRACTIONAL H S D 215,School District,Public School District;,District,901723
recipient,IL,17013373,STARS Autism Program ,School,Public School;,2900 OGDEN AVE,LISLE,IL,135706,Sch Assoc Spec Educ DuPage SASED,School District,Public School District;,OtherLocation,1057143
recipient,IL,17013374,Connections Program,School,Public School;,2900 OGDEN AVE,LISLE,IL,135706,Sch Assoc Spec Educ DuPage SASED,School District,Public School District;,OtherLocation,1057143
recipient,IL,17013376,Directions Program,School,Public School;,2900 OGDEN AVE,LISLE,IL,135706,Sch Assoc Spec Educ DuPage SASED,School District,Public School District;,OtherLocation,1057143
recipient,IL,17013887,Newark High School,School,Public School;,413 CHICAGO RD,NEWARK,IL,135710,NEWARK COMM H S DISTRICT 18,School District,Public School District;,District,901483
recipient,IL,17014899,Hollis Grade School,School,Public School;,5613 W TUSCARORA RD,PEORIA,IL,136190,HOLLIS SCHOOL DISTRICT 328,School District,Public School District;,District,901249
recipient,IN,51902,ADULT EDUCATION CENTER,School,Public School;,5391 CENTRAL AVE,PORTAGE,IN,130322,PORTAGE TOWNSHIP SCHOOLS,School District,Public School District;,District,902166
recipient,IN,52096,ELKHART AREA CAREER CENTER,School,Public School;,2424 CALIFORNIA RD,ELKHART,IN,130359,ELKHART COMM SCHOOL DISTRICT,School District,Public School District;,District,902028
recipient,IN,53038,GREENSBURG LEARNING CENTER,School,Public School;,422 E CENTRAL AVE,GREENSBURG,IN,130564,GREENSBURG COMMUNITY SCHOOLS,School District,Public School District;,District,902051
applicant,IN,53249,ST CHARLES BORROMEO SCHOOL,School,Public School;,2224 E 3RD ST,BLOOMINGTON,IN,53249,ST CHARLES BORROMEO SCHOOL,School,Public School;,,
recipient,IN,17001799,Tecumseh Middle School,School,Public School;,5300 W STATE ROUTE 68,LYNNVILLE,IN,130695,WARRICK COUNTY SCHOOL CORP,School District,Public School District;,District,902253
recipient,IN,17011578,McCutchanville Elementary,School,New Construction School;Public School;,10701 Peterburg Road,Evansville,IN,130716,EVANSVILLE-VANDERBURGH SCHOOL CORP.,School District,Public School District;,District,902032
recipient,IN,17011686,YOUTH SERVICES CENTER ,School,Public School;,2350 ILLINOIS AVE,COLUMBUS,IN,130558,BARTHOLOMEW CONS SCHOOL CORP,School District,Public School District;,District,901955
recipient,IN,17011860,Evansville Psychiatric Childrenâ€™s Center,School,Public School;,3300 E MORGAN AVE,EVANSVILLE,IN,130716,EVANSVILLE-VANDERBURGH SCHOOL CORP.,School District,Public School District;,District,902032
recipient,IN,17012064,TECUMSEH-HARRISON ELEM SCHOOL UNDER RENOVATION ,School,Public School;,2116 N 2nd St,VINCENNES,IN,130694,VINCENNES COMM SCHOOL CORP,School District,Public School District;,District,902248
recipient,IN,17012099,Heavilin Road Elementary School,School,New Construction School;Public School;,2300 HEAVILIN RD,VALPARAISO,IN,130327,VALPARAISO COMMUNITY SCHOOLS,School District,Public School District;,District,902245
recipient,IN,17012102,Choice Academy,School,Public School;,1011 W 7TH ST,AUBURN,IN,130445,DEKALB CO CTRL UNITED SCH DIST,School District,Public School District;,District,901984
recipient,IN,17012372,The Crossing of East Chicago,School,Public School;,"5246 Hohman Ave, 4th Floor",Hammond,IN,16057569,CROSSING NATIONAL INC,School District,Charter School District;Public School District;,OtherLocation,1010924
recipient,IN,17012556,The Excel Center - Clarksville,School,Public School;,1329 Applegate Lane ,Clarksville,IN,16039532,GOODWILL EDUCATION INITIATIVES,School District,Public School District;,OtherLocation,1009998
recipient,IN,17012616,SB Career Academy High School,School,Charter School;Public School;,3801 CRESCENT CIR,SOUTH BEND,IN,16069130,SOUTH BEND CAREER ACADEMY,School District,Charter School District;Public School District;,District,901921
recipient,IN,17012617,SB Career Academy Middle School,School,Charter School;Public School;,3801 CRESCENT CIR,SOUTH BEND,IN,16069130,SOUTH BEND CAREER ACADEMY,School District,Charter School District;Public School District;,District,901921
recipient,IN,17012618,SB Success Academy Primary School,School,Charter School;Public School;,3408 ARDMORE TRL,SOUTH BEND,IN,16069130,SOUTH BEND CAREER ACADEMY,School District,Charter School District;Public School District;,District,901921
applicant,IN,17013329,PURDUE POLYTECHNIC HIGH SCHOOL,School,Charter School;Public School;,525 S MERIDIAN ST,INDIANAPOLIS,IN,17013329,PURDUE POLYTECHNIC HIGH SCHOOL,School,Charter School;Public School;,,
recipient,IN,17013366,The Crossing of Syracuse,School,Public School;,304 W Main st ,Syracuse,IN,16057569,CROSSING NATIONAL INC,School District,Charter School District;Public School District;,OtherLocation,1010924
applicant,IN,17013761,"Avondale Meadows Academy, Inc dba Avondale Meadows Middle School",School,Charter School;Public School;,#N/A,#N/A,#N/A,17013761,"Avondale Meadows Academy, Inc dba Avondale Meadows Middle School",School,Charter School;Public School;,,
applicant,IN,17014000,Circle City Prep,School,Charter School;Public School;,8902 E 38TH ST,INDIANAPOLIS,IN,17014000,Circle City Prep,School,Charter School;Public School;,,
applicant,IN,17014113,Goodwill LEADS,School District,Charter School District;Public School District;,#N/A,#N/A,#N/A,17014113,Goodwill LEADS,School District,Charter School District;Public School District;,,
recipient,IN,17014152,Excel Center  Lake County,School,Charter School;Public School;,#N/A,#N/A,#N/A,17014113,Goodwill LEADS,School District,Charter School District;Public School District;,,
applicant,IN,17015094,HOOSIER ACADEMY INC,School,Charter School;Public School;,#N/A,#N/A,#N/A,17015094,HOOSIER ACADEMY INC,School,Charter School;Public School;,,
recipient,KS,17005221,Larned Elementary School,School,New Construction School;Public School;,2104 N. Broadway ,Larned,KS,138043,FORT LARNED UNIF SCH DIST 495,School District,Public School District;,District,903563
recipient,KS,17011830,WESTSIDE SCHOOL,School,Public School;,323 W 12TH ST,HAYS,KS,138073,HAYS USD 489,School District,Public School District;,District,903524
recipient,KS,17011831,THE LEARNING CENTER OF ELLIS COUNTY,School,Public School;,323 W 12TH ST,HAYS,KS,138073,HAYS USD 489,School District,Public School District;,District,903524
recipient,KS,17013630,Tri-County Special Ed- SNV,School,Public School;,1001 N 13TH ST,INDEPENDENCE,KS,137926,TRI-COUNTY SPECIAL ED CO-OP SCHOOL DISTRICT,School District,Public School District;,District,903381
recipient,KS,17013631,Tri-County Special Ed- Kids 1st,School,Public School;,1201 N 10TH ST,INDEPENDENCE,KS,137926,TRI-COUNTY SPECIAL ED CO-OP SCHOOL DISTRICT,School District,Public School District;,District,903381
recipient,KY,44148,COMMANDER ACADEMY,School,Public School;,601 LINCOLN PARK RD,SPRINGFIELD,KY,128753,WASHINGTON COUNTY SCHOOL DIST,School District,Public School District;,District,904569
recipient,KY,44669,FAMILY CARE CENTER,School,Public School;,1135 RED MILE PL,LEXINGTON,KY,128816,FAYETTE COUNTY SCHOOL DISTRICT,School District,Public School District;,District,904452
recipient,KY,17011625,BOOKER T WASHINGTON,School,Public School;,707 HOWARD ST,LEXINGTON,KY,128816,FAYETTE COUNTY SCHOOL DISTRICT,School District,Public School District;,District,904452
recipient,KY,17012571,21st Century Academy,School,Public School;,210 GLASS AVE,HOPKINSVILLE,KY,128986,CHRISTIAN COUNTY SCHOOL DIST,School District,Public School District;,District,904429
recipient,KY,17012754,CARDINAL ACADEMY,School,Public School;,1076 CARDINAL DR,GEORGETOWN,KY,128775,SCOTT COUNTY SCHOOL DISTRICT,School District,Public School District;,District,904552
recipient,KY,17013093,MILLARD SCHOOL,School,New Construction School;Public School;,5724 EAST SHELBIANA ROAD ,PIKEVILLE,KY,128925,PIKE COUNTY SCHOOL DISTRICT,School District,Public School District;,District,904538
recipient,KY,17013204,SOUTH FLOYD ELEMENTARY ,School,New Construction School;Public School;,299 MT RAIDER DR,HI HAT,KY,128928,FLOYD COUNTY SCHOOL DISTRICT,School District,Public School District;,District,904454
recipient,KY,17013211,FREDRICK DOUGLASS HIGH SCHOOL ,School,New Construction School;Public School;,2000 WINCHESTER RD,LEXINGTON,KY,128816,FAYETTE COUNTY SCHOOL DISTRICT,School District,Public School District;,District,904452
recipient,KY,17013214,West Perry Elementary School,School,Public School;,72 MISS EDNA LN,HAZARD,KY,128933,PERRY COUNTY SCHOOL DISTRICT,School District,Public School District;,District,904537
recipient,LA,81167,ROSENWALD CONTINUING ED CENTER,School,Public School;,2611 DAYTON ST,BATON ROUGE,LA,139288,EAST BATON ROUGE PARISH DIST,School District,Public School District;,District,909720
applicant,LA,17008302,Laurel Oaks Charter School,School,Charter School;Public School;,1900 North Blvd,Baton Rouge,LA,17008302,Laurel Oaks Charter School,School,Charter School;Public School;,,
recipient,LA,17008804,PATHWAYS IN EDUCATION - NORTH MARKET,School,Public School;,1900 N MARKET,SHREVEPORT,LA,139307,CADDO PARISH SCHOOL DISTRICT,School District,Public School District;,District,909712
recipient,LA,17012036,Edward J. Sam Accelerated School ,School,New Construction School;Public School;,200 18TH ST,LAFAYETTE,LA,139246,LAFAYETTE PARISH SCHOOL DIST,School District,Public School District;,District,909733
recipient,LA,17012037,Southside High School ,School,New Construction School;Public School;,312 Almonaster,Youngsville,LA,139246,LAFAYETTE PARISH SCHOOL DIST,School District,Public School District;,District,909733
applicant,LA,17012357,ELAN ACADEMY CHARTER SCHOOL,School,Charter School;New Construction School;Public School;,#N/A,#N/A,#N/A,17012357,ELAN ACADEMY CHARTER SCHOOL,School,Charter School;New Construction School;Public School;,,
recipient,LA,17012534,Bunche School,School,Public School;,8101 SIMON ST,METAIRIE,LA,139210,JEFFERSON PARISH SCHOOL DIST,School District,Public School District;,District,909731
recipient,LA,17012647,Wyandotte Center,School,Public School;,2525 WYANDOTTE ST,BATON ROUGE,LA,139288,EAST BATON ROUGE PARISH DIST,School District,Public School District;,District,909720
recipient,LA,17012939,Ardendale Technical Education Center,School,New Construction School;Public School;,1000 LOBDELL BLVD,BATON ROUGE,LA,139288,EAST BATON ROUGE PARISH DIST,School District,Public School District;,District,909720
recipient,LA,17012951,AmiKids,School,Charter School;Public School;,3860 Hutchinson,Shreveport,LA,139307,CADDO PARISH SCHOOL DISTRICT,School District,Public School District;,District,909712
recipient,LA,17012974,KIPP Booker T. Washington,School,Charter School;Public School;,2514 3RD ST,NEW ORLEANS,LA,16062138,KIPP NEW ORLEANS SCHOOLS,School District,Charter School District;Public School District;,District,909641
recipient,LA,17012990,Rapides Academy for Advanced Academics and Virtual Learning,School,Public School;,4645 LINCOLN RD,ALEXANDRIA,LA,139332,RAPIDES PARISH SCHOOL DISTRICT,School District,Public School District;,District,909746
recipient,LA,17013362,Einstein Charter High School at Sarah Towels Reed,School,Charter School;Public School;,5316 MICHOUD BLVD,NEW ORLEANS,LA,16072938,EINSTEIN CHARTER SCHOOL DISTRICT,School District,Charter School District;Public School District;,Consortium,1011951
recipient,LA,17013368,Einstein Charter Sherwood Forest,School,Public School;,4801 MAID MARION DR,NEW ORLEANS,LA,16072938,EINSTEIN CHARTER SCHOOL DISTRICT,School District,Charter School District;Public School District;,Consortium,1011951
recipient,LA,17013646,Natchitoches Magnet School,School,Public School;,800 KOONCE ST,NATCHITOCHES,LA,139352,NATCHITOCHES PARISH SCH SYSTEM,School District,Public School District;,District,909741
applicant,LA,17014160,ROOTED SCHOOL ,School,Public School;,#N/A,#N/A,#N/A,17014160,ROOTED SCHOOL ,School,Public School;,,
recipient,MA,16033797,LAWRENCE HIGH SCHOOL,School,Public School;,70-71 NORTH PARISH ROAD,LAWRENCE,MA,120387,LAWRENCE PUBLIC SCHOOLS,School District,Public School District;,District,911150
recipient,MA,17002986,KIPP Boston Elementary,School,Public School;,50 POYDRAS ST,HYDE PARK,MA,16067187,KIPP MA - DISTRICT OFFICE,School District,Charter School District;Public School District;,OtherLocation,1013722
applicant,MA,17012080,Libertas Academy Charter School,School,Charter School;Public School;,1 FEDERAL ST BLDG 101,SPRINGFIELD,MA,17012080,Libertas Academy Charter School,School,Charter School;Public School;,,
applicant,MA,17012454,Argosy Collegiate Academy - District Office,School District,Charter School District;Public School District;,263 Hamlet Street,Fall River,MA,17012454,Argosy Collegiate Academy - District Office,School District,Charter School District;Public School District;,,
recipient,MA,17012455,Argosy Collegiate Charter High School,School,Charter School;Public School;,240 DOVER ST,FALL RIVER,MA,17012454,Argosy Collegiate Academy - District Office,School District,Charter School District;Public School District;,,
applicant,MA,17012796,EDCO COLLABORATIVE,School District,ESA School District;Public School District;,36 MIDDLESEX TPKE,BEDFORD,MA,17012796,EDCO COLLABORATIVE,School District,ESA School District;Public School District;,,
recipient,MA,17012961,KING ELEMENTRY SCHOOL ,School,Public School;,454 WATER ST,FRAMINGHAM,MA,120311,FRAMINGHAM SCHOOL DISTRICT,School District,Public School District;,District,911101
recipient,MA,17013165,DUXBURY MIDDLE SCHOOL,School,Public School;,71 ALDEN ST,DUXBURY,MA,120600,DUXBURY PUBLIC SCHOOL DISTRICT,School District,Public School District;,District,911084
applicant,MA,17013361,"Phoenix Academy Public Charter High School, Springfield",School,Public School;,65 LINCOLN ST,SPRINGFIELD,MA,17013361,"Phoenix Academy Public Charter High School, Springfield",School,Public School;,,
recipient,MA,17013540,BROOKE MATTAPAN,School,Charter School;Public School;,150 AMERICAN LEGION HWY,DORCHESTER CENTER,MA,17006019,BROOKE CHARTER SCHOOLS,School District,Charter School District;Public School District;,OtherLocation,1075972
applicant,MA,17013909,Pioneer Charter School of Science II,School,Charter School;Public School;,97 MAIN ST,SAUGUS,MA,17013909,Pioneer Charter School of Science II,School,Charter School;Public School;,,
applicant,MA,17013958,Pioneer Charter School of Science,School,Charter School;Public School;,51 SUMMER ST # 59,EVERETT,MA,17013958,Pioneer Charter School of Science,School,Charter School;Public School;,,
applicant,MA,17014320,Old Sturbridge Academy Charter Public School,School,Charter School;Public School;,#N/A,#N/A,#N/A,17014320,Old Sturbridge Academy Charter Public School,School,Charter School;Public School;,,
recipient,MA,17014572,North Crossing Therapeutic Day School,School,ESA School;Public School;,36 MIDDLESEX TPKE,BEDFORD,MA,17012796,EDCO COLLABORATIVE,School District,ESA School District;Public School District;,,
recipient,MA,17014575,EDCO 45-Day Assessment Program,School,ESA School;Public School;,36 MIDDLESEX TPKE,BEDFORD,MA,17012796,EDCO COLLABORATIVE,School District,ESA School District;Public School District;,,
recipient,MA,17014577,EDCO Partners Program,School,ESA School;Public School;,115 GREENOUGH ST,BROOKLINE,MA,17012796,EDCO COLLABORATIVE,School District,ESA School District;Public School District;,,
recipient,MA,17014578,EDCO Youth Alternative - Iterim,School,ESA School;Public School;,36 MIDDLESEX TPKE,BEDFORD,MA,17012796,EDCO COLLABORATIVE,School District,ESA School District;Public School District;,,
recipient,MA,17014579,EDCO Youth Alternative - West,School,ESA School;Public School;,36 MIDDLESEX TPKE,BEDFORD,MA,17012796,EDCO COLLABORATIVE,School District,ESA School District;Public School District;,,
recipient,MA,17015053,Provincetown Schools,School,Public School;,#N/A,#N/A,#N/A,120695,PROVINCETOWN PUBLIC SCHOOLS,School District,Public School District;,District,911261
applicant,MA,17015056,LOWER PIONEER VALLEY EDUCATIONAL COLLABORATIVE,School,Public School;,174 BRUSH HILL AVE,WEST SPRINGFIELD,MA,17015056,LOWER PIONEER VALLEY EDUCATIONAL COLLABORATIVE,School,Public School;,,
applicant,MA,17015113,New Heights Charter School of Brockton,School,Charter School;Public School;,#N/A,#N/A,#N/A,17015113,New Heights Charter School of Brockton,School,Charter School;Public School;,,
recipient,MD,17012011, Silver Creek Middle School,School,New Construction School;Public School;,3701 Saul Road,Kensington,MD,126360,MONTGOMERY COUNTY SCHOOL DISTRICT,School District,Public School District;,District,915459
recipient,MD,17012822,Monarch Academy Annapolis,School,New Construction School;Public School;,#N/A,#N/A,#N/A,16067459,THE CHILDRENS GUILD CORP HEADQUARTERS,School District,Public School District;,OtherLocation,1014858
recipient,MD,17012868,New School #42,School,New Construction School;Public School;,10910 STATE ROUTE 108,ELLICOTT CITY,MD,126366,HOWARD CO. PUBLIC SCHOOL SYSTEM,School District,Public School District;,District,915457
recipient,MD,17013086,International High School at Largo,School,Public School;,505 LARGO RD,LARGO,MD,126359,PRINCE GEORGE'S COUNTY SCHOOLS,School District,Public School District;,District,915460
recipient,ME,3922,FRANK JEWETT ALTERNATIVE MIDDLE/HIGH SCHOOL,School,Public School;,912 Long Plains Road,BUXTON,ME,121340,M.S.A.D. #6,School District,Public School District;,District,917490
recipient,ME,17012276,Valley Rivers Middle School,School,Public School;,84 Pleasant Street,Fort Kent,ME,121674,SCHOOL ADMIN DISTRICT 27,School District,Public School District;,District,917470
recipient,MI,56265,BAISD Local Programs,School,Public School;,4228 Two Mile Road,BAY CITY,MI,131135,BAY-ARENAC INTER SCHOOL DIST,School District,Public School District;,Consortium,920088
recipient,MI,56323,DETENTION CENTER,School,Public School;,520 HAMPTON RD,ESSEXVILLE,MI,131135,BAY-ARENAC INTER SCHOOL DIST,School District,Public School District;,Consortium,920088
recipient,MI,58141,RIDGEMOOR PARK MONTESSORI,School,Public School;,2555 INVERNESS RD SE,GRAND RAPIDS,MI,131572,GRAND RAPIDS PUBLIC SCHOOLS,School District,Public School District;,District,919704
applicant,MI,17006730,GATEWAY TO SUCCESS ACADEMY,School District,Charter School District;Public School District;,526 N. Scottville Rd.,Scottville,MI,17006730,GATEWAY TO SUCCESS ACADEMY,School District,Charter School District;Public School District;,,
applicant,MI,17010047,Jefferson-Douglass Academy,School,Charter School;Public School;,6861 E NEVADA ST,DETROIT,MI,17010047,Jefferson-Douglass Academy,School,Charter School;Public School;,,
recipient,MI,17011779,Downriver Virtual Academy,School,Public School;,27225 West Outer Dr,Ecorse,MI,130961,ECORSE PUBLIC SCHOOL DISTRICT,School District,Public School District;,District,919647
recipient,MI,17012018,William A Pearson Elementary,School,New Construction School;Public School;,57900 11 MILE RD,SOUTH LYON,MI,130917,SOUTH LYON COMM SCHOOL DIST,School District,Public School District;,District,919974
recipient,MI,17012573,GALESBURG-AUGUSTA ALTERNATIVE EDUCATION,School,Public School;,1076 N 37TH ST,GALESBURG,MI,131334,GALESBURG-AUGUSTA COMM SCHOOLS,School District,Public School District;,District,919681
recipient,MI,17012803,Flat Rock Academic Virtual Academy,School,Public School;,25600 SENECA ST,FLAT ROCK,MI,130880,FLAT ROCK COMM SCHOOL DISTRICT,School District,Public School District;,District,919553
recipient,MI,17012908,EAU CLAIRE MIDDLE SCHOOL,School,Public School;,7450 HOCHBERGER RD,EAU CLAIRE,MI,131398,EAU CLAIRE PUBLIC SCHOOL DIST,School District,Public School District;,District,919646
recipient,MI,17012940,W-A-Y NILES,School,Public School;,111 SPRUCE STREET,NILES,MI,131406,NILES COMM SCHOOL DISTRICT,School District,Public School District;,District,919873
recipient,MI,17012964,Wyoming Regional Center,School,Public School;,3600 BYRON CENTER AVE SW,WYOMING,MI,131580,WYOMING PUBLIC SCHOOL DISTRICT,School District,Public School District;,District,920057
recipient,MI,17013079,Manistee Harbor Academy,School,Public School;,525 12th Street,Manistee,MI,131631,MANISTEE AREA PUBLIC SCHOOLS,School District,Public School District;,District,919813
recipient,MI,17013282,Regional Center for Agriscience and Career Advancement,School,Public School;,5479 W 72ND ST,FREMONT,MI,131521,NEWAYGO CO REGIONAL EDUCATIONAL SERVICE AGENCY,School District,Public School District;,Consortium,1019073
recipient,MI,17013432,DEXTER ALTERNATIVE SCHOOL,School,Public School;,7714 ANN ARBOR ST,DEXTER,MI,130877,DEXTER COMMUNITY SCHOOLS,School District,Public School District;,District,919632
applicant,MI,17013447,Woodley Leadership Academy,School,Charter School;New Construction School;Public School;,#N/A,#N/A,#N/A,17013447,Woodley Leadership Academy,School,Charter School;New Construction School;Public School;,,
recipient,MI,17013513,SCHOFIELD ELEMENTARY SCHOOL,School,Public School;,21555 WARNER AVENUE,WARREN,MI,130849,FITZGERALD PUBLIC SCHOOLS,School District,Public School District;,District,919664
applicant,MI,17013956,Kalamazoo Covenant Academy,School,Public School;,400 W CROSSTOWN PKWY,KALAMAZOO,MI,17013956,Kalamazoo Covenant Academy,School,Public School;,,
applicant,MI,17014161,Pathways Global Leadership Academy,School,Charter School;Public School;,30053 PARKWOOD ST,INKSTER,MI,17014161,Pathways Global Leadership Academy,School,Charter School;Public School;,,
applicant,MI,17014171,Detroit Collegiate High School,School,Charter School;Public School;,#N/A,#N/A,#N/A,17014171,Detroit Collegiate High School,School,Charter School;Public School;,,
recipient,MN,203950,HIBBING ALTERNATIVE LEARNING CENTER,School,Public School;,800 E 21ST STREET,HIBBING,MN,133674,HIBBING INDEP SCH DISTRICT 701,School District,Public School District;,District,922626
recipient,MN,17009722,HILLTOP HEADSTART,School,Head Start;Public School;,3203 68TH ST E,INVER GROVE HEIGHTS,MN,16051402,"SCOTT CARVER DAKOTA CAP AGENCY, INC.",School District,Public School District;,OtherLocation,1016576
recipient,MN,17011631,NLC ISD 361 ALC Prog,School,Public School;,1201 13th Avenue South,Virginia,MN,17008992,ISD 6076 NLC,School District,Public School District;,OtherLocation,1076058
recipient,MN,17011632,NLC NSEC Trans Prog,School,Public School;,1201 13th Avenue South,Virginia ,MN,17008992,ISD 6076 NLC,School District,Public School District;,OtherLocation,1076058
recipient,MN,17011633,NLC Day Treatment,School,Public School;,1201 13th Avenue South,Virginia,MN,17008992,ISD 6076 NLC,School District,Public School District;,OtherLocation,1076058
recipient,MN,17011655,Lynd Public School,School,Public School;,106 SAINT ALBANS ST,LYND,MN,133836,LYND SCHOOL DISTRICT 415,School District,Public School District;,District,922669
recipient,MN,17011832,Cooperative Area Learning Program,School,Public School;,4629 144TH ST W,APPLE VALLEY,MN,133544,ROSEMOUNT IND. SCHOOL DIST 196,School District,Public School District;,District,922753
recipient,MN,17011896,Pride Transitions ,School,Public School;,15 1st ave south suite 4,Buffalo,MN,133587,BUFFALO SCHOOL DISTRICT 877,School District,Public School District;,District,922541
recipient,MN,17011897,NEXT STEP TRANSITION PROGRAM,School,Public School;,7155 80TH ST S,COTTAGE GROVE,MN,133519,SOUTH WASHINGTON CO SCH D 833,School District,Public School District;,District,922783
applicant,MN,17012809,Marine Area Community School,School,Charter School;Public School;,#N/A,#N/A,#N/A,17012809,Marine Area Community School,School,Charter School;Public School;,,
recipient,MN,17013129,OWATONNA ECSE ,School,Public School;,338 E MAIN ST,OWATONNA,MN,133538,OWATONNA SCHOOL DISTRICT 761,School District,Public School District;,District,922724
recipient,MN,17013242,LAKETOWN ELEMENTARY,School,Public School;,960 AIRPORT RD,WACONIA,MN,133621,WACONIA SCHOOL DISTRICT 110,School District,Public School District;,District,922804
recipient,MN,17013338,LAKELAND ELEMENTARY,School,New Construction School;Public School;,1001 LAKELAND DR SE,WILLMAR,MN,133854,WILLMAR INDEP SCHOOL DIST 347,School District,Public School District;,District,922813
recipient,MN,17013360,Red Rock Ridge-SUN,School,Public School;,68 10th st,Windom,MN,133878,SWWC Service Cooperative,School District,ESA School District;Public School District;,Consortium,922261
recipient,MN,17013410,Saint Academy,School,Public School;,4111 Ambassador Boulevard NW St,St Francis,MN,209584,ISD 15,School District,Public School District;,District,922777
recipient,MN,17013415,Minneapolis Academy & Career Center,School,Public School;,800 W BROADWAY AVE,MINNEAPOLIS,MN,133625,MINNEAPOLIS SCHOOL DISTRICT 1,School District,Public School District;,District,922687
recipient,MN,17013712,Otsego E8,School,New Construction School;Public School;,12200 80TH ST NE,OTSEGO,MN,133595,ELK RIVER INDEPENDENCE SCHOOL DISTRICT 728,School District,Public School District;,District,922590
applicant,MN,17013845,FIT ACADEMY,School,Public School;,7200 147TH ST W,APPLE VALLEY,MN,17013845,FIT ACADEMY,School,Public School;,,
applicant,MN,17013874,Parnassus Preparatory School,School,Public School;,11201 96TH AVE N,MAPLE GROVE,MN,17013874,Parnassus Preparatory School,School,Public School;,,
applicant,MN,17013875,Art and Science Academy,School,Public School;,#N/A,#N/A,#N/A,17013875,Art and Science Academy,School,Public School;,,
applicant,MN,17013993,"AUSTIN AREA, ALBERT LEA SPECIAL EDUCATION COOPERATIVE",School,Public School;,2001 2nd Ave SW,Austin,MN,17013993,"AUSTIN AREA, ALBERT LEA SPECIAL EDUCATION COOPERATIVE",School,Public School;,,
applicant,MN,17014041,LEVEL UP ACADEMY ,School,Charter School;Public School;,2600 EAST COUNTY ROAD E,WHITE BEAR LAKE,MN,17014041,LEVEL UP ACADEMY ,School,Charter School;Public School;,,
applicant,MN,17014108,ATHLOS ACADEMY ST CLOUD,School,Charter School;Public School;,#N/A,#N/A,#N/A,17014108,ATHLOS ACADEMY ST CLOUD,School,Charter School;Public School;,,
recipient,MO,17011489,Early Education Center,School,Public School;,1005 WATERFORD DR,FLORISSANT,MO,136880,FERGUSON-FLORISSANT SCH DIST,School District,Public School District;,District,924224
applicant,MO,17012027,EAGLE College Prep Gravois Park,School,Charter School;Public School;,#N/A,#N/A,#N/A,17012027,EAGLE College Prep Gravois Park,School,Charter School;Public School;,,
recipient,MO,17012523,Golden Gate Elementary School ,School,Public School;,100 GOLDEN GATE PKWY,FORISTELL,MO,136957,WENTZVILLE  R-IV SCHOOL DISTRICT,School District,Public School District;,District,924630
recipient,MO,17012525,Hwy Z Elementary School ,School,Public School;,1850 HIGHWAY Z,WENTZVILLE,MO,136957,WENTZVILLE  R-IV SCHOOL DISTRICT,School District,Public School District;,District,924630
recipient,MO,17012687,Lead Innovation Studio HS,School,New Construction School;Public School;,10150 N Ambassador Dr.,Kansas City,MO,137156,PARK HILL SCHOOL DISTRICT,School District,Public School District;,District,924463
applicant,MO,17012744,Kansas City International Academy,School,Charter School;Public School;,414 Wallace Avenue,Kansas City,MO,17012744,Kansas City International Academy,School,Charter School;Public School;,,
recipient,MO,17013589,KIPP High School,School,Public School;,#N/A,#N/A,#N/A,16057578,KIPP ST. LOUIS,School District,Charter School District;Public School District;,OtherLocation,1076076
recipient,MO,17013590,KIPP Triumph Academy,School,Public School;,#N/A,#N/A,#N/A,16057578,KIPP ST. LOUIS,School District,Charter School District;Public School District;,OtherLocation,1076076
recipient,MS,43074,TISHOMINGO CO VOC-TECH CENTER,School,Public School;,1421 Hwy 25 N,TISHOMINGO,MS,128583,TISHOMINGO CO SCHOOL DISTRICT,School District,Public School District;,District,926706
recipient,MS,43173,CAREER AND TECHNICAL CENTER,School,Public School;,#N/A,#N/A,#N/A,128616,MADISON COUNTY SCHOOL DISTRICT,School District,Public School District;,District,926648
recipient,MS,233103,NORTH PONTOTOC MIDDLE SCHOOL,School,Public School;,8234 HWY 15 NORTH,ECRU,MS,128588,PONTOTOC CO SCHOOL DISTRICT,School District,Public School District;,District,926686
recipient,MS,17011638,Pearl Upper Elementary,School,New Construction School;Public School;,400 TREASURE CV,PEARL,MS,128646,PEARL PUBLIC SCHOOL DISTRICT,School District,Public School District;,District,926678
recipient,MS,17012166,FabLab Jackson County,School,Public School;,10208 HIGHWAY 57,VANCLEAVE,MS,128706,JACKSON COUNTY SCHOOL DISTRICT,School District,Public School District;,District,926627
recipient,MS,17012491,Lowndes County Career Technology Center ,School,Public School;,1085 N LEHMBERG RD,COLUMBUS,MS,128728,LOWNDES COUNTY SCHOOLS,School District,Public School District;,District,926646
recipient,MS,17012769,BILOXI JUNIOR HIGH SCHOOL,School,Public School;,1421 JAM LANE  BILOXI,BILOXI,MS,128700,BILOXI SCHOOL DISTRICT,School District,Public School District;,District,926558
recipient,MS,17012927,East Jasper School District Alternative School,School,Public School;,#N/A,#N/A,#N/A,128677,EAST JASPER CONSOL SCHOOL DIST,School District,Public School District;,District,926595
recipient,MS,17012958,GEORGE COUNTY ALTERNATIVE SCHOOL,School,Public School;,330 CHURCH ST,LUCEDALE,MS,128681,GEORGE COUNTY SCHOOL DISTRICT,School District,Public School District;,District,926606
recipient,MS,17012959,GEORGE COUNTY LEAD ACADEMY,School,Public School;,689 CHURCH ST,LUCEDALE,MS,128681,GEORGE COUNTY SCHOOL DISTRICT,School District,Public School District;,District,926606
recipient,MS,17013143,CLEVELAND CENTRAL HIGH SCHOOL,School,Public School;,300 W SUNFLOWER RD,CLEVELAND,MS,128559,CLEVELAND SCHOOL DISTRICT,School District,Public School District;,District,926562
recipient,MS,17013145,CLEVELAND CENTRAL MIDDLE SCHOOL,School,Public School;,601 LUCY SEABERRY BLVD,CLEVELAND,MS,128559,CLEVELAND SCHOOL DISTRICT,School District,Public School District;,District,926562
recipient,MS,17013148,D.M. SMITH ELEMENTARY,School,Public School;,715 S MARTIN LUTHER KING DR,CLEVELAND,MS,128559,CLEVELAND SCHOOL DISTRICT,School District,Public School District;,District,926562
recipient,MS,17013296,BALDWYN VOCATIONAL TRAINING SCHOOL ,School,New Construction School;Public School;,120 Vandiver Street,BALDWYN,MS,128574,BALDWYN SCHOOL DISTRICT,School District,Public School District;,District,926555
recipient,MS,17013364,TISHOMINGO ALTERNATIVE SCHOOL,School,Public School;,34A MONROE ST,TISHOMINGO,MS,128583,TISHOMINGO CO SCHOOL DISTRICT,School District,Public School District;,District,926706
recipient,MT,67558,UTTERBACK 4-6 SCHOOL,School,Public School;,24 2nd Ave SW,CONRAD,MT,134926,CONRAD SCHOOL DISTRICT 10,School District,Public School District;,District,928857
recipient,MT,17012712,KALISPELL SOUTH ELEM SCHOOL,School,New Construction School;Public School;,2155 AIRPORT RD,KALISPELL,MT,135173,KALISPELL SCHOOL DISTRICT 5,School District,Public School District;,District,928998
recipient,MT,17013136,FRED MOODRY INTERMEDIATE SCHOOL,School,Public School;,219 E 3RD ST,ANACONDA,MT,135047,ANACONDA SCHOOL DISTRICT 10,School District,Charter School District;Public School District;,District,928768
recipient,MT,17014784,SPRING CREEK SD 1 & 17,School,Public School;,LAKESHORE DR,DECKER,MT,134714,SPRING CREEK SD 1 & 17,School District,Public School District;,District,928792
recipient,MT,17014875,GARRISON SCHOOL,School,Public School;,33 SCHOOL HOUSE RD,GARRISON,MT,135080,GARRISON SCHOOL DISTRICT 20,School District,Public School District;,District,929087
recipient,NC,17010292,CROSSROADS FLEX HIGH SCHOOL,School,Public School;,5651 DILLARD DR,CARY,NC,126877,WAKE COUNTY PUBLIC SCHOOL SYSTEM,School District,Public School District;,District,929615
recipient,NC,17011749,Elementary C,School,Public School;,500 Scott King Road,Durham,NC,126878,DURHAM PUBLIC SCHOOL DISTRICT,School District,Public School District;,District,929543
recipient,NC,17011750,Whitted School,School,Public School;,200 East Umstead Street,Durham,NC,126878,DURHAM PUBLIC SCHOOL DISTRICT,School District,Public School District;,District,929543
recipient,NC,17011883,Merancas Middle College,School,New Construction School;Public School;,11930 VERHOEFF DR,HUNTERSVILLE,NC,126973,CHARLOTTE-MECKLENBURG SCHOOLS,School District,Public School District;,District,929576
recipient,NC,17012266,HORTONS CREEK ELEMENTARY SCHOOL,School,Public School;,2374 Yates Store Road,Cary,NC,126877,WAKE COUNTY PUBLIC SCHOOL SYSTEM,School District,Public School District;,District,929615
recipient,NC,17012267,ROGERS LANE ELEMENTARY SCHOOL,School,Public School;,201 N. Rogers Lane,Raleigh,NC,126877,WAKE COUNTY PUBLIC SCHOOL SYSTEM,School District,Public School District;,District,929615
recipient,NC,17012268,RIVER BEND MIDDLE SCHOOL,School,Public School;,6620 Perry Creek Road,Raleigh,NC,126877,WAKE COUNTY PUBLIC SCHOOL SYSTEM,School District,Public School District;,District,929615
recipient,NC,17012269,NORTH WAKE COLLEGE AND CAREER ACADEMY,School,Public School;,931 Durham Road,Wake Forest,NC,126877,WAKE COUNTY PUBLIC SCHOOL SYSTEM,School District,Public School District;,District,929615
recipient,NC,17012275,SWIFT CREEK MIDDLE SCHOOL,School,New Construction School;Public School;,325 Norris Road,Clayton,NC,126867,JOHNSTON COUNTY SCHOOL DIST,School District,Public School District;,District,929565
recipient,NC,17012713,Secondary Montessori School,School,New Construction School;Public School;,2400 CARMINE ST,CHARLOTTE,NC,126973,CHARLOTTE-MECKLENBURG SCHOOLS,School District,Public School District;,District,929576
recipient,NC,17012946,Hawks Nest Steam Academy,School,Public School;,3430 ROBINWOOD RD,GASTONIA,NC,126946,GASTON COUNTY SCHOOL DISTRICT,School District,Public School District;,District,929548
recipient,NC,17013070,University Area Computer Coding Magnet,School,New Construction School;Public School;,8601 OLD CONCORD RD,CHARLOTTE,NC,126973,CHARLOTTE-MECKLENBURG SCHOOLS,School District,Public School District;,District,929576
recipient,NC,17013071,eLearning,School,New Construction School;Public School;,800 EVERETT PL,CHARLOTTE,NC,126973,CHARLOTTE-MECKLENBURG SCHOOLS,School District,Public School District;,District,929576
recipient,NC,17013221,SOUTH EAST AREA TECHNICAL HIGH SCHOOL,School,Public School;,4500 BLUE CLAY RD,CASTLE HAYNE,NC,127005,NEW HANOVER COUNTY BOARD OF ED,School District,Public School District;,District,929584
applicant,NC,17013561,Emereau Bladen,School,Public School;,118 W BROAD ST,ELIZABETHTOWN,NC,17013561,Emereau Bladen,School,Public School;,,
recipient,ND,17014331,Killdeer High School,School,Public School;,#N/A,#N/A,#N/A,134610,Killdeer Public School District #16,School District,Public School District;,District,933690
recipient,NE,17012874,Verdigre Middle School,School,Public School;,201 S 3rd St.,Verdigre,NE,16064135,NEBRASKA UNIFIED DISTRICT 1,School District,Public School District;,District,935964
recipient,NE,17012898,CHASE COUNTY MIDDLE SCHOOL,School,Public School;,520 EAST 9TH ST,IMPERIAL,NE,138948,CHASE COUNTY SCHOOLS,School District,Public School District;,District,935991
recipient,NE,17012899,Eastward Elementary ,School,Public School;,600 J Street ,Neligh,NE,138633,NELIGH-OAKDALE SCHOOL DISTRICT,School District,Public School District;,District,936129
recipient,NE,17012901,West Boyd Middle School,School,Public School;,106 East Greig St. ,Spencer ,NE,16049437,WEST BOYD SCHOOL DISTRICT,School District,Public School District;,District,936007
recipient,NE,17013064,Bennington Middle School,School,Public School;,11201 N 168TH ST,Bennington,NE,138225,BENNINGTON PUBLIC SCHOOLS,School District,Public School District;,District,936033
recipient,NH,3730,ROLLINSFORD GRADE SCHOOL,School,Public School;,487 LOCUST ST,ROLLINSFORD,NH,121311,ROLLINSFORD SCHOOL DISTRICT,School District,Public School District;,District,937654
recipient,NH,17012158,Middleton Elementary School,School,Public School;,116 KINGS HWY,MIDDLETON,NH,121257,MIDDLETON SCHOOL DISTRICT,School District,Public School District;,District,937618
applicant,NH,17012431,SEACOAST CHARTER SCHOOL,School,Charter School;Public School;,#N/A,#N/A,#N/A,17012431,SEACOAST CHARTER SCHOOL,School,Charter School;Public School;,,
applicant,NH,17014504,School Administrative Unit 101,School District,Public School District;,#N/A,#N/A,#N/A,17014504,School Administrative Unit 101,School District,Public School District;,,
recipient,NJ,235417,NEW BRUNSWICK HEALTH SCIENCE TECHNOLOGY HIGH SCHOOL,School,Public School;,#N/A,#N/A,#N/A,123590,NEW BRUNSWICK SCHOOL DISTRICT,School District,Public School District;,District,941454
recipient,NJ,16058631,COUNTY PREP HIGH SCHOOL,School,Public School;,525 MONTGOMERY STREET,JERSEY CITY,NJ,122711,HUDSON COUNTY SCHOOLS OF TECHNOLOGY,School District,Public School District;,District,941317
applicant,NJ,17001826,Union Arts and Science Charter School,School,Charter School;Public School;,179 HUSSA ST,LINDEN,NJ,17001826,Union Arts and Science Charter School,School,Charter School;Public School;,,
recipient,NJ,17001862,Patricia M. Noonan Elementary School,School,New Construction School;Public School;,Laidlaw Ave. & Sumit Ave ,Jersey City,NJ,122798,JERSEY CITY SCHOOL DISTRICT,School District,Public School District;,District,941325
recipient,NJ,17011405,Atlantic County Elementary and Middle Schools,School,Public School;,4805 NAWAKWA BLVD,MAYS LANDING,NJ,123405,ATLANTIC CO SPECIAL SERV DIST,School District,Public School District;,District,940941
recipient,NJ,17011406,Atlantic County High School,School,Public School;,4805 NAWAKWA BLVD,MAYS LANDING,NJ,123405,ATLANTIC CO SPECIAL SERV DIST,School District,Public School District;,District,940941
recipient,NJ,17011593,Moss School,School,Public School;,#N/A,#N/A,#N/A,123538,METUCHEN SCHOOL DISTRICT,School District,Public School District;,District,941410
applicant,NJ,17011781,Great Oaks Legacy Charter School,School,Charter School;Public School;,823 S 16TH ST,NEWARK,NJ,17011781,Great Oaks Legacy Charter School,School,Charter School;Public School;,,
recipient,NJ,17011892,Alternative SchoolYes Academy,School,Public School;,#N/A,#N/A,#N/A,122871,PATERSON PUBLIC SCHOOLS,School District,Public School District;,District,941514
recipient,NJ,17012028,WASHINGTON SCHOOL,School,Public School;,70 SPRING ST,MILLBURN,NJ,122700,MILLBURN TWP SCHOOL DISTRICT,School District,Public School District;,District,941418
recipient,NJ,17012937,Oak Tree Road Elementary School,School,New Construction School;Public School;,#N/A,#N/A,#N/A,122774,WOODBRIDGE TWP SCHOOL DISTRICT,School District,Public School District;,District,941732
recipient,NJ,17013489,Jerome Dunn Academy School No. 5,School,Public School;,#N/A,#N/A,#N/A,122796,ELIZABETH PUBLIC SCHOOLS,School District,Public School District;,District,941203
recipient,NJ,17013490,School No. 31,School,New Construction School;Public School;,#N/A,#N/A,#N/A,122796,ELIZABETH PUBLIC SCHOOLS,School District,Public School District;,District,941203
recipient,NJ,17013535,WOODROW WILSON SCHOOL,School,Public School;,80 HAUXHURST AVENUE,WEEHAWKEN,NJ,122761,WEEHAWKEN TOWNSHIP SCHOOL DIST,School District,Public School District;,District,941698
applicant,NJ,17013769,GRAY CHARTER SCHOOL,School,Public School;,55 LIBERTY ST,NEWARK,NJ,17013769,GRAY CHARTER SCHOOL,School,Public School;,,
applicant,NJ,17013844,Achieve Community Charter School,School,Charter School;Public School;,#N/A,#N/A,#N/A,17013844,Achieve Community Charter School,School,Charter School;Public School;,,
applicant,NJ,17013888,LEAD Charter School,School,Charter School;Public School;,571 CENTRAL AVE FL 2,NEWARK,NJ,17013888,LEAD Charter School,School,Charter School;Public School;,,
applicant,NJ,17013980,International Academy of Trenton Charter School,School,Charter School;Public School;,500 PERRY ST,TRENTON,NJ,17013980,International Academy of Trenton Charter School,School,Charter School;Public School;,,
applicant,NJ,17015035,BRIDGETON PUBLIC CHARTER SCHOOL,School,Public School;,790 EAST COMMERCE STREET,BRIDGETON,NJ,17015035,BRIDGETON PUBLIC CHARTER SCHOOL,School,Public School;,,
recipient,NM,17004527,Desert Willow Elementary School,School,New Construction School;Public School;,2100 Primrose Street,Carlsbad,NM,143347,CARLSBAD MUNICIPAL SCHOOL DIST,School District,Public School District;,District,942880
recipient,NM,17004529,Ocotillo Elementary School,School,New Construction School;Public School;,2106 Captain Williams Lane,Carlsbad,NM,143347,CARLSBAD MUNICIPAL SCHOOL DIST,School District,Public School District;,District,942880
recipient,NM,17013175,Milagro Middle School,School,New Construction School;Public School;,351 W ZIA RD,SANTA FE,NM,143272,SANTA FE SCHOOL DISTRICT,School District,Public School District;,District,942957
recipient,NM,17013662,Early College High School,School,Public School;,23 West Mathis St. ,Roswell,NM,143342,ROSWELL INDEP SCHOOL DISTRICT,School District,Public School District;,District,942953
applicant,NM,17014319,Siembra Leadership Highschool,School,Charter School;Public School;,#N/A,#N/A,#N/A,17014319,Siembra Leadership Highschool,School,Charter School;Public School;,,
recipient,NM,17014798, Mandela International Magnet ,School,Public School;,1720 LLANO ST,SANTA FE,NM,143272,SANTA FE SCHOOL DISTRICT,School District,Public School District;,District,942957
applicant,NV,17012923,Founders Academy of Las Vegas,School,Charter School;Public School;,#N/A,#N/A,#N/A,17012923,Founders Academy of Las Vegas,School,Charter School;Public School;,,
applicant,NV,17013307,Futuro Academy Incorporated ,School,Charter School;Public School;,#N/A,#N/A,#N/A,17013307,Futuro Academy Incorporated ,School,Charter School;Public School;,,
applicant,NV,17013719,Mater Academy of Northern Nevada,School,Charter School;Public School;,2680 E 9TH ST,RENO,NV,17013719,Mater Academy of Northern Nevada,School,Charter School;Public School;,,
applicant,NV,17013720,Doral Academy of Northern Nevada,School,Charter School;Public School;,385 TERAMO DR,RENO,NV,17013720,Doral Academy of Northern Nevada,School,Charter School;Public School;,,
applicant,NY,17008336,Hyde Leadership charter School - Brooklyn,School,Charter School;Public School;,330 ALABAMA AVE,BROOKLYN,NY,17008336,Hyde Leadership charter School - Brooklyn,School,Charter School;Public School;,,
recipient,NY,17008814,JOSEPH AVENUE HEADSTART,School,Head Start;Public School;,251 JOSEPH AVE,ROCHESTER,NY,17002311,Action For a Better Community,School District,Public School District;,OtherLocation,1076132
recipient,NY,17011475,Children's Aid Society-Charter-Temporary,School,Public School;,1734 WILLIAMSBRIDGE RD,BRONX,NY,16050307,CHILDRENS AID SOCIETY INC,School District,Charter School District;Public School District;,OtherLocation,1042054
recipient,NY,17011573,Corning-Painted Post High School Learning Center,School,Public School;,#N/A,#N/A,#N/A,125113,CORNING CITY SCHOOL DISTRICT,School District,Public School District;,District,946326
applicant,NY,17011636,Brooklyn Emerging Leaders Academy Charter High School,School,Charter School;Public School;,111 BROADWAY RM 604,NEW YORK,NY,17011636,Brooklyn Emerging Leaders Academy Charter High School,School,Charter School;Public School;,,
recipient,NY,17011708,SACS-HUDSON YARDS,School,New Construction School;Public School;,#N/A,#N/A,#N/A,16075238,SUCCESS ACADEMY CHARTER SCHOOLS,School District,Charter School District;Public School District;,Consortium,1046992
recipient,NY,17011709,SACS-HARLEM 6,School,New Construction School;Public School;,#N/A,#N/A,#N/A,16075238,SUCCESS ACADEMY CHARTER SCHOOLS,School District,Charter School District;Public School District;,Consortium,1046992
applicant,NY,17011820,Legacy College Prep Charter High School,School,Charter School;Public School;,111 BROADWAY RM 604,NEW YORK,NY,17011820,Legacy College Prep Charter High School,School,Charter School;Public School;,,
applicant,NY,17011881, Forte Prep Academy Charter School,School,Charter School;Public School;,111 BROADWAY RM 604,NEW YORK,NY,17011881, Forte Prep Academy Charter School,School,Charter School;Public School;,,
applicant,NY,17012220,Elmwood Village Charter School - Hertel,School,Charter School;Public School;,40 DAYS PARK,BUFFALO,NY,17012220,Elmwood Village Charter School - Hertel,School,Charter School;Public School;,,
recipient,NY,17012286, BEGINNING WITH CHILDREN CHARTER SCHOOL 2-MIDDLE SCHOOL ,School,Charter School;Public School;,#N/A,#N/A,#N/A,16072733,BEGINNING WITH CHILDREN FOUNDATION,School District,Charter School District;Public School District;,OtherLocation,1043514
applicant,NY,17012516,Hebrew Language Academy 2,School,Charter School;Public School;,#N/A,#N/A,#N/A,17012516,Hebrew Language Academy 2,School,Charter School;Public School;,,
applicant,NY,17012517,REACH Academy Charter School,School,Charter School;Public School;,115 ASH ST,BUFFALO,NY,17012517,REACH Academy Charter School,School,Charter School;Public School;,,
recipient,NY,17012527,AF-Comprehensive Academy Elementary ,School,Charter School;Public School;,125 Covert Street,Brooklyn,NY,16027027,ACHIEVEMENT FIRST,School District,Charter School District;Public School District;,OtherLocation,1042934
recipient,NY,17012542,Canarsie Ascend Charter School,School,Charter School;Public School;,757 E 86TH ST,BROOKLYN,NY,16046462,Ascend Charter Schools,School District,Charter School District;Public School District;,District,946060
recipient,NY,17012543,P-Tech Program,School,Public School;,61 MONROE ST,ST JOHNSVILLE,NY,16075828,OPPENHEIM-EPHRATAH-ST JOHNSVILLE CENTRAL SCH DIST,School District,Public School District;,District,1073570
recipient,NY,17012667,Port Richmond School for Visionary Learning,School,Public School;,1625 FOREST AVE,STATEN ISLAND,NY,153135,NEW YORK CITY DEPARTMENT OF EDUCATION,School District,Public School District;,OtherLocation,1043473
recipient,NY,17012865,Troy Prep High School,School,Public School;,2 Polk Street,Troy,NY,16049708,UNCOMMON SCHOOLS,School District,Charter School District;Public School District;,OtherLocation,1043385
recipient,NY,17012866,Camden Prep Elementary School 2,School,Public School;,1575 Mt. Ephraim Avenue,Camden,NJ,16049708,UNCOMMON SCHOOLS,School District,Charter School District;Public School District;,OtherLocation,1043385
recipient,NY,17012867,Uncommon High School 4,School,Public School;,1575 Mt. Ephraim Avenue,Brooklyn,NY,16049708,UNCOMMON SCHOOLS,School District,Charter School District;Public School District;,OtherLocation,1043385
recipient,NY,17012909,AF-ASPIRE MIDDLE SCHOOL,School,Charter School;Public School;,982 HEGEMAN AVENUE,BROOKLYN,NY,16027027,ACHIEVEMENT FIRST,School District,Charter School District;Public School District;,OtherLocation,1042934
recipient,NY,17012911,AF-PROVIDENCE MAYORAL MIDDLE,School,Charter School;Public School;,370 HARTFORD AVENUE,PROVIDENCE,RI,16027027,ACHIEVEMENT FIRST,School District,Charter School District;Public School District;,OtherLocation,1042934
recipient,NY,17013029,Bronx Charter School for Excellence 3,School,Charter School;Public School;,#N/A,#N/A,#N/A,17005045,Bronx Charter School for Excellence,School District,Charter School District;Public School District;,OtherLocation,1082649
recipient,NY,17013154,LONGWOOD CAREER CENTER,School,Public School;,138 MAIN ST,YAPHANK,NY,124013,LONGWOOD CENTRAL SCH DISTRICT,School District,Public School District;,District,946616
recipient,NY,17013615,PS #040,School,Public School;,#N/A,#N/A,#N/A,124849,BUFFALO CITY SCHOOL DISTRICT,School District,Charter School District;Public School District;,District,946258
recipient,NY,17013619,PS #078,School,Public School;,#N/A,#N/A,#N/A,124849,BUFFALO CITY SCHOOL DISTRICT,School District,Charter School District;Public School District;,District,946258
applicant,NY,17013833,Exploration Elementary Charter School for Science and Technology,School,Charter School;Public School;,#N/A,#N/A,#N/A,17013833,Exploration Elementary Charter School for Science and Technology,School,Charter School;Public School;,,
applicant,NY,17014050,Syracuse Academy of Science and Citizenship Charter School ,School,Charter School;Public School;,301 VALLEY DR,SYRACUSE,NY,17014050,Syracuse Academy of Science and Citizenship Charter School ,School,Charter School;Public School;,,
applicant,NY,17014184,CUNY PREP SCHOOL,School,Public School;,2122 WHITE PLAINS RD,BRONX,NY,17014184,CUNY PREP SCHOOL,School,Public School;,,
applicant,NY,17014360,South Bronx Community Charter High School,School,Charter School;Public School;,890 WASHINGTON AVE FL 5,BRONX,NY,17014360,South Bronx Community Charter High School,School,Charter School;Public School;,,
applicant,OH,46744,GOOD SAMARITAN SCHOOL,School,Public School;,195 ISLAND PARK AVE,DEFIANCE,OH,46744,GOOD SAMARITAN SCHOOL,School,Public School;,,
recipient,OH,46976,WHITMER VOCATIONAL CENTER,School,Public School;,5719 CLEGG DR,TOLEDO,OH,129311,WASHINGTON LOCAL SCHOOL DIST,School District,Public School District;,District,950051
recipient,OH,48233,NORTON ELEMENTARY,School,Public School;,3390 CLEVELAND MASSILLON ROAD,NORTON,OH,129524,NORTON CITY SCHOOL DISTRICT,School District,Public School District;,District,949685
recipient,OH,16085613,CAMPBELL ELEMENTARY K-7,School,Public School;,2002 COMMUNITY CIRCLE,CAMPBELL,OH,129582,CAMPBELL LOCAL SCHOOLS,School District,Public School District;,District,949584
recipient,OH,17011977,Early College High School,School,Public School;,1005 ABBE RD N,ELYRIA,OH,129434,LORAIN CITY SCHOOL DISTRICT,School District,Public School District;,District,949647
recipient,OH,17012293,Dover Intermediate School,School,Public School;,2260 DOVER CENTER RD,WESTLAKE,OH,129517,WESTLAKE CITY SCHOOL DISTRICT,School District,Public School District;,District,949737
recipient,OH,17012334,SWANTON MS-NEW ,School,Public School;,101 ELTON PARKWAY ,SWANTON,OH,129299,SWANTON LOCAL SCHOOL DISTRICT,School District,Public School District;,District,949936
recipient,OH,17012335,SWANTON ELEMENTARY SCHOOL ,School,Public School;,111 CRESTWOOD DR,SWANTON,OH,129299,SWANTON LOCAL SCHOOL DISTRICT,School District,Public School District;,District,949936
applicant,OH,17012374,YOUTH BUILD COLUMBUS COMMUNITY SCHOOL,School,Charter School;Public School;,1183 ESSEX AVE,COLUMBUS,OH,17012374,YOUTH BUILD COLUMBUS COMMUNITY SCHOOL,School,Charter School;Public School;,,
recipient,OH,17012379,Warren County Learning Center - St. Marys,School,Public School;,115 S MAIN ST,FRANKLIN,OH,129814,WARREN COUNTY ESC,School District,Public School District;,Consortium,950264
recipient,OH,17012382,Galloway Road Building,School,Public School;,#N/A,#N/A,#N/A,129769,NORTH POINT ESC,School District,Public School District;,Consortium,949050
recipient,OH,17012389,FAIRFIELD COMPASS ELEMENTARY SCHOOL,School,Public School;,8801 HOLDEN BLVD,FAIRFIELD,OH,129806,FAIRFIELD CITY SCHOOL DISTRICT,School District,Public School District;,District,949838
recipient,OH,17012568,EARLY COLLEGE HIGH SCHOOL,School,Public School;,225 S MAIN ST,AKRON,OH,129572,AKRON CITY SCHOOL DISTRICT,School District,Public School District;,District,949559
recipient,OH,17012672,Bolton Crossing Elementary,School,Public School;,2695 Holt Road,"Columbus, Ohio",OH,129133,SOUTH-WESTERN CITY SCHOOL DIST,School District,Public School District;,District,949708
recipient,OH,17013121,EASTWOOD ELEMENTARY SCHOOL,School,Public School;,4700 SUGAR RIDGE RD,PEMBERVILLE,OH,129248,EASTWOOD LOCAL SCHOOL DISTRICT,School District,Public School District;,District,950295
applicant,OH,17013137,Pleasant Community Digital Academy ,School District,Charter School District;Public School District;,1105 Owens Rd. West,Marion,OH,17013137,Pleasant Community Digital Academy ,School District,Charter School District;Public School District;,,
recipient,OH,17013144,Pleasant Community Digital Academy ,School,Charter School;Public School;,1105 Owens Rd West,Marion,OH,17013137,Pleasant Community Digital Academy ,School District,Charter School District;Public School District;,,
recipient,OH,17013224,Miami School,School,Public School;,140 ROSS AVE,HAMILTON,OH,129803,HAMILTON CITY SCHOOL DISTRICT,School District,Public School District;,District,949631
recipient,OH,17013225,Shawnee Middle School,School,Public School;,1675 E POSSUM RD,SPRINGFIELD,OH,129991,CLARK-SHAWNEE SCH DIST,School District,Public School District;,District,949856
recipient,OH,17013283,TOLEDO EARLY COLLEGE HIGH SCHOOL,School,Public School;,2801 W BANCROFT ST - MS 461,TOLEDO,OH,129313,TOLEDO SCHOOL DISTRICT,School District,Public School District;,District,949719
recipient,OH,17013357,SUMMIT ACADEMY TOLEDO,School,Public School;,301 COLLINGWOOD BLVD,TOLEDO,OH,228168,SUMMIT ACADEMY,School District,Charter School District;Public School District;,OtherLocation,1034509
applicant,OH,17013371,Southwest Ohio Preparatory School,School,New Construction School;Public School;,#N/A,#N/A,#N/A,17013371,Southwest Ohio Preparatory School,School,New Construction School;Public School;,,
applicant,OH,17013384,Cleveland Preparatory Academy,School,Public School;,#N/A,#N/A,#N/A,17013384,Cleveland Preparatory Academy,School,Public School;,,
applicant,OH,17013385,South Columbus Preparatory Academy,School,Charter School;Public School;,#N/A,#N/A,#N/A,17013385,South Columbus Preparatory Academy,School,Charter School;Public School;,,
recipient,OH,17013387,Mahoning County High School,School,Public School;,940 BRYN MAWR AVE,YOUNGSTOWN,OH,129631,YOUNGSTOWN CITY SCHOOL DIST,School District,Public School District;,District,949746
recipient,OH,17013515,Davis Aerospace & Maritime High School,School,New Construction School;Public School;,1440 Lakeside Ave.,Cleveland,OH,129482,CLEVELAND CITY SCHOOL DISTRICT,School District,Public School District;,District,949591
recipient,OH,17013523,PASS AT PERKINS,School,Public School;,630 MULL AVE,AKRON,OH,129572,AKRON CITY SCHOOL DISTRICT,School District,Public School District;,District,949559
recipient,OH,17013670,Warren County Learning Center ,School,Public School;,513 PARK AVE,FRANKLIN,OH,129814,WARREN COUNTY ESC,School District,Public School District;,Consortium,950264
recipient,OH,17013710,Lake Local New K-1,School,Public School;,#N/A,#N/A,#N/A,129659,LAKE LOCAL SCHOOL DISTRICT,School District,Public School District;,District,950207
recipient,OH,17013711,Lake Local New 2-6,School,Public School;,#N/A,#N/A,#N/A,129659,LAKE LOCAL SCHOOL DISTRICT,School District,Public School District;,District,950207
applicant,OH,17013964,Castle High School,School,Charter School;Public School;,3950 Prospect Avenue,Cleveland,OH,17013964,Castle High School,School,Charter School;Public School;,,
applicant,OH,17014049,Greater Summit County Early Learning Center,School,Public School;,#N/A,#N/A,#N/A,17014049,Greater Summit County Early Learning Center,School,Public School;,,
applicant,OH,17014111,"Albert Einstein Academy for Letters, Arts & Sciences",School,Charter School;Public School;,#N/A,#N/A,#N/A,17014111,"Albert Einstein Academy for Letters, Arts & Sciences",School,Charter School;Public School;,,
recipient,OK,17010648,Howe Head Start,School,Head Start;Public School;,#N/A,#N/A,#N/A,16040861,KI BOIS COMMUNITY ACTION FOUNDATION,School District,Public School District;,OtherLocation,1032321
recipient,OK,17010650,Grandview Head Start,School,Head Start;Public School;,#N/A,#N/A,#N/A,16040861,KI BOIS COMMUNITY ACTION FOUNDATION,School District,Public School District;,OtherLocation,1032321
recipient,OK,17010676,Liberty Head Start,School,Head Start;Public School;,#N/A,#N/A,#N/A,16040861,KI BOIS COMMUNITY ACTION FOUNDATION,School District,Public School District;,OtherLocation,1032321
recipient,OK,17012557,CASHION MIDDLE SCHOOL,School,Public School;,101 N EUCLID AVE,CASHION,OK,139749,CASHION INDEP SCHOOL DIST I-89,School District,Public School District;,District,951183
recipient,OK,17012576,Archery Building,School,Public School;,603 Cook St.,Arkoma,OK,140390,ARKOMA INDEP SCHOOL DIST 91,School District,Public School District;,District,951093
recipient,OK,17012577,Sports Complex,School,Public School;,119 Cook St.,Arkoma,OK,140390,ARKOMA INDEP SCHOOL DIST 91,School District,Public School District;,District,951093
recipient,OK,17012766,Enid Classroom @ NWOSU,School,Public School;,2929 E RANDOLPH AVE,ENID,OK,139947,ENID INDEP SCHOOL DISTRICT 57,School District,Public School District;,District,951286
recipient,OK,17012928,Broken Arrow Timber Ridge Elementary,School,New Construction School;Public School;,3500 E Kenosha,Broken Arrow,OK,140044,BROKEN ARROW SCHOOL DISTRICT 3,School District,Public School District;,District,951149
recipient,OK,17013008,Hartshorne Event Center,School,New Construction School;Public School;,521 S. 5th Street ,Hartshorne,OK,140244,HARTSHORNE INDEP SCHOOL DIST 1,School District,Public School District;,District,951361
recipient,OK,17013031,Washington Pre-K,School,Public School;,1615 N 7TH ST,PONCA CITY,OK,140269,PONCA CITY INDEP SCH DIST 71,School District,Public School District;,District,951613
recipient,OK,17013369, Shidler Middle School,School,Public School;,312 West 1st street,Shidler,OK,140286,SHIDLER INDEP SCHOOL DIST 11,School District,Public School District;,District,951678
recipient,OK,17013372,Rush Springs ElementaryMiddle School ,School,New Construction School;Public School;,601 W CHOCTAW,RUSH SPRINGS,OK,139812,RUSH SPRINGS SCHOOL DIST 68,School District,Public School District;,District,951652
recipient,OK,17013378,Alex MS-HS,School,New Construction School;Public School;,209 South 2nd St,Alex,OK,139731,ALEX PUBLIC SCHOOL DIST I-56,School District,Public School District;,District,951074
recipient,OK,17013569,Thackerville Middle School,School,Public School;,18943 US HIGHWAY 77,THACKERVILLE,OK,139867,THACKERVILLE SCHOOL DISTRICT 4,School District,Public School District;,District,951729
recipient,OR,17012615,Hillsboro Online Academy,School,Public School;,452 NE 3RD AVE,HILLSBORO,OR,144885,HILLSBORO SCHOOL DISTRICT 1J,School District,Public School District;,District,952109
recipient,OR,17013191,GIB OLINGER ELEMENTARY SCHOOL,School,New Construction School;Public School;,#N/A,#N/A,#N/A,145138,MILTON-FREEWATER UNIFIED SCHOOL DISTRICT 7,School District,Public School District;,District,952266
recipient,OR,17013423,Mountainside High School,School,Public School;,12500 SW 175TH AVE,BEAVERTON,OR,144823,BEAVERTON SCHOOL DISTRICT 48 J,School District,Public School District;,District,952158
recipient,OR,17013424,Kaizer Road K-5 School,School,Public School;,7775 NW Kaizer Rd. ,Portland ,OR,144823,BEAVERTON SCHOOL DISTRICT 48 J,School District,Public School District;,District,952158
recipient,OR,17013443,MERIDIAN CREEK MIDDLE SCHOOL,School,New Construction School;Public School;,6300 SW HAZEL ST,WILSONVILLE,OR,144866,WEST LINN-WILSONVILLE DIST 3 J,School District,Public School District;,District,952352
recipient,PA,20518,KENDERTON ELEMENTARY SCHOOL,School,Public School;,1500 W ONTARIO ST,PHILADELPHIA,PA,126161,PHILADELPHIA SCHOOL DISTRICT,School District,Public School District;,District,954018
applicant,PA,16056389,KIPP DUBOIS COLLEGIATE ACADEMY ,School,Charter School;Public School;,5070 Parkside Avenue,PHILADELPHIA,PA,16056389,KIPP DUBOIS COLLEGIATE ACADEMY ,School,Charter School;Public School;,,
recipient,PA,16071626,UPPER MERION VANTAGE ACADEMY,School,Public School;,633 EAST 4TH. STREET,BRIDGEPORT,PA,17002037,Lakeside Youth Service,School District,Public School District;,OtherLocation,1076197
applicant,PA,17012020,GLOBAL LEADERSHIP ACADEMY SOUTHWEST,School,Public School;,5200 PINE ST,PHILADELPHIA,PA,17012020,GLOBAL LEADERSHIP ACADEMY SOUTHWEST,School,Public School;,,
applicant,PA,17012304,KIPP WEST PHILADELPHIA ELEMENTARY ACADEMY,School,Charter School;Public School;,"5900 BALTIMORE AVE, 1ST FLOOR",PHILADELPHIA,PA,17012304,KIPP WEST PHILADELPHIA ELEMENTARY ACADEMY,School,Charter School;Public School;,,
applicant,PA,17012459,EXECUTIVE EDUCATION ACADEMY CHARTER SCHOOL ,School,Charter School;Public School;,555 Union Blvd,Allentown,PA,17012459,EXECUTIVE EDUCATION ACADEMY CHARTER SCHOOL ,School,Charter School;Public School;,,
recipient,PA,17012544,Forest Hills Junior-Senior High School ,School,New Construction School;Public School;,535 Locust St,SIDMAN,PA,125447,FOREST HILLS SCHOOL DISTRICT,School District,Public School District;,District,953794
recipient,PA,17012707,ELECTRIC CITY ACADEMY,School,Public School;,530 ELECTRIC ST,SCRANTON,PA,125991,SCRANTON CITY SCHOOL DISTRICT,School District,Public School District;,District,954064
recipient,PA,17012715,Avonworth Elementary  ,School,Public School;,1320 ROOSEVELT RD,PITTSBURGH,PA,125277,AVONWORTH SCHOOL DISTRICT,School District,Public School District;,District,953626
recipient,PA,17012784,Cougar Academy at Lincoln,School,Public School;,1601 STATE ST,HARRISBURG,PA,125727,HARRISBURG CITY SCHOOL DIST,School District,Public School District;,District,953836
recipient,PA,17013075,PHILADELPHIA LEADERSHIP ACADEMY-NORTH,School,Public School;,4224 N. Front St.,Philadelphia,PA,126161,PHILADELPHIA SCHOOL DISTRICT,School District,Public School District;,District,954018
recipient,PA,17013076,PHILADELPHIA LEADERSHIP ACADEMY-SOUTH,School,Public School;,4300 Westminster Ave,Philadelphia,PA,126161,PHILADELPHIA SCHOOL DISTRICT,School District,Public School District;,District,954018
recipient,PA,17013580,STEAM ACADEMY,School,Public School;,701 TEXAS AVE,YORK,PA,125790,YORK CITY SCHOOL DISTRICT,School District,Public School District;,District,954221
applicant,PA,17013736,Independence Charter School West,School,Charter School;Public School;,5600 CHESTER AVE,PHILADELPHIA,PA,17013736,Independence Charter School West,School,Charter School;Public School;,,
recipient,SC,17011813,Philip Simmons High School,School,New Construction School;Public School;,3080 RIVER VILLAGE DR,CHARLESTON,SC,127179,BERKELEY COUNTY SCHOOL DIST,School District,Public School District;,District,962235
applicant,SC,17011849,OCEANSIDE COLLEGIATE ACADEMY,School,Charter School;Public School;,711 Pickney Street,McClellanville,SC,17011849,OCEANSIDE COLLEGIATE ACADEMY,School,Charter School;Public School;,,
applicant,SC,17012370,Green Charter School of the Midlands,School,Public School;,7820 Broad River Road,Irmo,SC,17012370,Green Charter School of the Midlands,School,Public School;,,
recipient,SC,17012889,Bowens Corner Elementary School,School,New Construction School;Public School;,1173 Williams Lane,Hanahan,SC,127179,BERKELEY COUNTY SCHOOL DIST,School District,Public School District;,District,962235
recipient,SC,17013067,Clarendon School District 1 Alternative School,School,Public School;,"1154 4th St.  Summerton, SC 29148",Summerton,SC,127135,CLARENDON COUNTY SCHOOL DISTRICT ONE,School District,Public School District;,District,962244
recipient,SC,17013139,HAMPTON DISTRICT 1 LEARNING CENTER,School,Public School;,63 EAST PALMETTO,VARNVILLE,SC,127261,HAMPTON COUNTY SCHOOL DIST 1,School District,Public School District;,District,962271
recipient,SC,17013140,HAMPTON 1 ACADEMY FOR SUCCESS,School,Public School;,964 WEST PALMETTO AVENUE,VARNVILLE,SC,127261,HAMPTON COUNTY SCHOOL DIST 1,School District,Public School District;,District,962271
recipient,SC,17013195,Spartanburg District Seven New Elementary School,School,Public School;,#N/A,#N/A,#N/A,127153,SPARTANBURG COUNTY SCHOOL DISTRICT 7,School District,Public School District;,District,962314
recipient,SC,17013265,FOXBANK ELEMENTARY SCHOOL,School,New Construction School;Public School;,169 FOXBANK PLANTATION BOULEVARD,MONCKS CORNER,SC,127179,BERKELEY COUNTY SCHOOL DIST,School District,Public School District;,District,962235
recipient,SC,17013382,New Language Academy,School,New Construction School;Public School;,1825B EDEN TER,ROCK HILL,SC,127242,ROCK HILL SCHOOL DISTRICT 3,School District,Public School District;,District,962320
recipient,SC,17013389,New Construction Elementary School,School,Public School;,4983 Charlotte Highway,Lancaster,SC,127240,LANCASTER COUNTY SCHOOL DISTRICT,School District,Public School District;,District,962277
recipient,SD,17013421,KENNEDY ELEMENTARY SCHOOL,School,Public School;,2306 BROOKSTONE LOOP,PIERRE,SD,134234,PIERRE SCHOOL DISTRICT 32-2,School District,Public School District;,District,965976
recipient,SD,17013588,Sturgis Intermediate School,School,Public School;,1230 DOUGLAS ST,STURGIS,SD,134311,MEADE SCHOOL DISTRICT 46-1,School District,Public School District;,District,965992
recipient,TN,17010272,Memphis School of Excellence,School,Public School;,4450 S MENDENHALL RD,MEMPHIS,TN,128440,SHELBY COUNTY SCHOOL DISTRICT,School District,Public School District;,District,1075206
recipient,TN,17011927,Grainger Academy,School,Public School;,190 PIONEER DR,RUTLEDGE,TN,128393,GRAINGER COUNTY SCHOOL DISTRICT,School District,Public School District;,District,967105
recipient,TN,17013084,Freedom Prep Elementary-Shelby,School,Charter School;Public School;,3750 MILLBRANCH RD,MEMPHIS,TN,16053577,FREEDOM PREPARATORY ACADEMY,School District,Charter School District;Public School District;,School,977443
recipient,TN,17013176,HARDIN VALLEY MIDDLE SCHOOL,School,New Construction School;Public School;,2280 STEELE RD,KNOXVILLE,TN,128407,KNOX COUNTY SCHOOL DISTRICT,School District,Public School District;,District,967140
recipient,TN,17013177,GIBBS MIDDLE SCHOOL,School,New Construction School;Public School;,7711 TAZEWELL PIKE,CORRYTON,TN,128407,KNOX COUNTY SCHOOL DISTRICT,School District,Public School District;,District,967140
recipient,TN,17013416,EAST NASHVILLE MAGNET MIDDLE SCHOOL,School,Public School;,2000 GREENWOOD AVE,NASHVILLE,TN,128258,METROPOLITAN NASHVILLE PUBLIC SCHOOLS,School District,Charter School District;Public School District;,District,967173
recipient,TN,17013571,Rocky Fork Middle School,School,Public School;,100 Thunderstorm Lane,Smyrna,TN,128242,RUTHERFORD COUNTY SCHOOL DIST,School District,Public School District;,District,967191
applicant,TN,17015076,GATEWAY UNIVERSITY,School,Charter School;Public School;,#N/A,#N/A,#N/A,17015076,GATEWAY UNIVERSITY,School,Charter School;Public School;,,
applicant,TX,87276,MID CITIES LEARNING CTR,School,Charter School;Public School;,12500 S PIPELINE RD,EULESS,TX,87276,MID CITIES LEARNING CTR,School,Charter School;Public School;,,
applicant,TX,91959,ST LOUIS SCHOOL,School,Public School;,2114 SAINT JOSEPH BLVD,AUSTIN,TX,91959,ST LOUIS SCHOOL,School,Public School;,,
recipient,TX,226247,NORTHSIDE ELEMENTARY,School,Public School;,1522 BLAIR AVE,CLEVELAND,TX,141240,CLEVELAND INDEP SCHOOL DIST,School District,Public School District;,District,969182
applicant,TX,16064475,ST ANTHONY SCHOOL DISTRICT,School District,Charter School District;Public School District;,3732 MYRTLE STREET,DALLAS,TX,16064475,ST ANTHONY SCHOOL DISTRICT,School District,Charter School District;Public School District;,,
recipient,TX,17002629,Coastal Alternative Program,School,Public School;,13302 HIGHWAY 6,SANTA FE,TX,141332,DICKINSON INDEP SCHOOL DIST,School District,Public School District;,District,969276
recipient,TX,17005281,HUDSON ISD Transportation,School,Public School;,4121 Ted Trout Dr.,Lufkin,TX,140785,HUDSON INDEP SCHOOL DISTRICT,School District,Public School District;,District,969497
recipient,TX,17006404,Monticello Academy,School,Charter School;Public School;,4205 SAN PEDRO AVE,SAN ANTONIO,TX,17006399, San Antonio School for Inquiry and Creativity School District,School District,Charter School District;Public School District;,OtherLocation,1082693
recipient,TX,17010423,NSCISD--DAEP,School,Public School;,112 US Hwy 87,Smiley,TX,141521,NIXON-SMILEY CONS IND SCH DIST,School District,Public School District;,District,969787
recipient,TX,17010826,HOLLIS T DIETZ ELEMENTARY,School,New Construction School;Public School;,4020 SUNNYBROOK DR,HEARTLAND,TX,140492,CRANDALL INDEP SCHOOL DISTRICT,School District,Public School District;,District,969223
recipient,TX,17011549,TRINITY CHARTER SCHOOLS  NEW HOPE,School,Public School;,1000 N. McColl Rd.,McAllen,TX,16021347,TRINITY CHARTER SCHOOLS,School District,Charter School District;Public School District;,OtherLocation,1052642
recipient,TX,17011694,KIPP Pleasant Grove Middle School ,School,New Construction School;Public School;,2200 St Augustine Drive,Dallas,TX,16072202,KIPP DALLAS-FT WORTH COLLEGE PREP PUBLIC SCHOOLS,School District,Charter School District;Public School District;,District,968885
recipient,TX,17011731,DSISD New Elementary School,School,New Construction School;Public School;,14451 SAWYER RANCH RD,AUSTIN,TX,141701,DRIPPING SPRINGS INDEP SCH DIST,School District,Public School District;,District,968677
recipient,TX,17011732,DSISD New Middle School ,School,New Construction School;Public School;,14451 SAWYER RANCH RD,AUSTIN,TX,141701,DRIPPING SPRINGS INDEP SCH DIST,School District,Public School District;,District,968677
recipient,TX,17011776,Bel Air Middle School,School,New Construction School;Public School;,8040 Yermoland Dr,EL PASO,TX,142115,YSLETA INDEP SCHOOL DISTRICT,School District,Public School District;,District,970234
recipient,TX,17011777,New Thomas Manor Elementary School,School,New Construction School;Public School;,New Thomas Manor Elementary School,El Paso,TX,142115,YSLETA INDEP SCHOOL DISTRICT,School District,Public School District;,District,970234
recipient,TX,17011778,Excel Academy,School,Public School;,1005 W FAIRMONT ST,LONGVIEW,TX,140662,PINE TREE INDEP SCHOOL DIST,School District,Public School District;,District,969860
recipient,TX,17011800,KLEIN EDUCATION PLACEMENT PROGRAM,School,Public School;,7200 SPRING CYPRESS RD,KLEIN,TX,141269,KLEIN ISD,School District,Public School District;,District,969569
recipient,TX,17011811,LUBBOCK-COOPER NEW HOPE ACADEMY,School,Public School;,16302 LOOP 493,LUBBOCK,TX,141989,LUBBOCK-COOPER ISD,School District,Public School District;,District,969212
recipient,TX,17011853,Bradley Elementary (Flex #17),School,Public School;,4200 Falls Lake Drive,Spring,TX,141237,CONROE INDEP SCHOOL DISTRICT,School District,Public School District;,District,969208
recipient,TX,17011979,Freedom Elementary,School,Public School;,415 EG Ranch Road,Laredo,TX,141487,UNITED ISD,School District,Public School District;,District,970137
recipient,TX,17011980,Middle School #10,School,Public School;,410 EG Ranch Road,Laredo,TX,141487,UNITED ISD,School District,Public School District;,District,970137
recipient,TX,17011981,Elementary #29,School,Public School;,11021 Bucky Houdman Blvd,Laredo,TX,141487,UNITED ISD,School District,Public School District;,District,970137
recipient,TX,17011982,United South 9th Grade,School,Public School;,3819 Aguanieve Rd,Laredo ,TX,141487,UNITED ISD,School District,Public School District;,District,970137
recipient,TX,17011983,AHS 9th Grade,School,Public School;,4601 Victory Dr,Laredo,TX,141487,UNITED ISD,School District,Public School District;,District,970137
recipient,TX,17011984,United High 9th Grade,School,Public School;,2811 Hillcroft Dr,Laredo,TX,141487,UNITED ISD,School District,Public School District;,District,970137
recipient,TX,17011985,LBJ 9th Grade,School,Public School;,5511 St. Luke Blvd,Laredo,TX,141487,UNITED ISD,School District,Public School District;,District,970137
recipient,TX,17012044,Shadow Creek High School,School,Public School;,11850 BROADWAY ST,PEARLAND,TX,141316,ALVIN INDEP SCHOOL DISTRICT,School District,Public School District;,District,968982
recipient,TX,17012045,Meridiana Elementary,School,Public School;,9815 Meridiana Parkway,Iowa Colony,TX,141316,ALVIN INDEP SCHOOL DISTRICT,School District,Public School District;,District,968982
recipient,TX,17012054,KIPP Nexus Primary,School,New Construction School;Public School;,4211 Watonga,Houston,TX,216840,KIPP INC.,School District,Charter School District;Public School District;,District,968717
recipient,TX,17012055,KIPP Nexus Middle School,School,New Construction School;Public School;,4211 Watonga,Houston,TX,216840,KIPP INC.,School District,Charter School District;Public School District;,District,968717
recipient,TX,17012180,NEW CONSTRUCTION ELEM # 41,School,Public School;,3701 CROSS CREEK BEND LN,FULSHEAR,TX,141311,KATY INDEP SCHOOL DISTRICT,School District,Public School District;,District,969546
recipient,TX,17012399,Vanguard Monet Elementary,School,New Construction School;Public School;,3000 N. Stewart Road,Mission,TX,17005956,Vanguard Academy Central Administration,School District,Charter School District;Public School District;,OtherLocation,1076343
applicant,TX,17012480,CENTRAL TEXAS CHRISTIAN SCHOOLS ,School,Public School;,4141 W FM 93,TEMPLE,TX,17012480,CENTRAL TEXAS CHRISTIAN SCHOOLS ,School,Public School;,,
recipient,TX,17012493,Linda Lyons Elementary ,School,New Construction School;Public School;,2186 Trophy Dr,Heath,TX,140480,ROCKWALL INDEP SCHOOL DISTRICT,School District,Public School District;,District,969945
recipient,TX,17012570,AUSTIN ACHIEVE ELEMENTARY SCHOOL,School,New Construction School;Public School;,5908 MANOR ROAD,AUSTIN,TX,16072340,AUSTIN ACHIEVE PUBLIC SCHOOLS,School District,Charter School District;Public School District;,OtherLocation,1053418
recipient,TX,17012579,Saginaw Elementary School ,School,Charter School;New Construction School;Public School;,7855 OLD DECATUR RD,SAGINAW,TX,17003241,International Leadership of Texas,School District,Public School District;,OtherLocation,1082694
recipient,TX,17012580,Fort Worth- Saginaw High School,School,Charter School;New Construction School;Public School;,Southwest Corner of Hwy 287 & Bonds Ranch Rd,Fort Worth,TX,17003241,International Leadership of Texas,School District,Public School District;,OtherLocation,1082694
recipient,TX,17012584,East Fort Worth Elementary School,School,Charter School;New Construction School;Public School;,5901 BOCA RATON BLVD,FORT WORTH,TX,17003241,International Leadership of Texas,School District,Public School District;,OtherLocation,1082694
recipient,TX,17012585,Lancaster Elementary School ,School,Charter School;New Construction School;Public School;,1900 W. Pleasant Run Rd,Lancaster,TX,17003241,International Leadership of Texas,School District,Public School District;,OtherLocation,1082694
recipient,TX,17012588,Houston Windmill Lakes Elementary ,School,Charter School;New Construction School;Public School;,9898 WINDMILL LAKES BLVD,HOUSTON,TX,17003241,International Leadership of Texas,School District,Public School District;,OtherLocation,1082694
recipient,TX,17012591,KatyWestPark High School ,School,Charter School;New Construction School;Public School;,Southeast Corner of Beechnut Rd & Ashton Brook Lane,Richmond,TX,17003241,International Leadership of Texas,School District,Public School District;,OtherLocation,1082694
recipient,TX,17012596,Livingston HS Academy,School,Public School;,400 FM 350 S,LIVINGSTON,TX,141254,LIVINGSTON INDEP SCHOOL DIST,School District,Public School District;,District,969637
recipient,TX,17012628,Middle School #6,School,New Construction School;Public School;,370 Hubertus Rd,Schertz,TX,141517,COMAL INDEP SCHOOL DISTRICT,School District,Public School District;,District,969197
recipient,TX,17012629,Middle School # 7,School,New Construction School;Public School;,Corner of E. Borgfeld Drive & Shawnee Pass Street,San Antonio,TX,141517,COMAL INDEP SCHOOL DISTRICT,School District,Public School District;,District,969197
recipient,TX,17012639,YES PREP School 17,School,Public School;,5815 Airline Drive,Houston,TX,223028,YES PREP SOUTHEAST,School District,Charter School District;Public School District;,OtherLocation,1053584
recipient,TX,17012694,LAGO VISTA INTERMEDIATE SCHOOL,School,Public School;,20801 FM 1431,LAGO VISTA,TX,141721,LAGO VISTA INDEP SCH DISTRICT,School District,Public School District;,District,969596
recipient,TX,17012714,A.W. BROWN PLEASANT RUN CAMPUS,School,Public School;,211 E PLEASANT RUN RD,DESOTO,TX,17002366,A.W. BROWN FELLOWSHIP CHARTER SCHOOL DISTRICT,School District,Charter School District;Public School District;,OtherLocation,1076329
recipient,TX,17012717,LIBERTY-EYLAU ELEMENTARY SCHOOL,School,New Construction School;Public School;,5492 US HIGHWAY 59 S,TEXARKANA,TX,140635,LIBERTY-EYLAU INDEP SCH DIST,School District,Public School District;,District,969625
recipient,TX,17012771,Marfa Schools,School,Public School;,400 West Lincolin Street,Marfa,TX,142099,MARFA INDEP SCHOOL DISTRICT,School District,Public School District;,District,969677
recipient,TX,17012775,New Acton Elementary,School,Public School;,7095 W WHEATLAND RD,DALLAS,TX,140506,DUNCANVILLE INDEP SCHOOL DIST,School District,Public School District;,District,969293
recipient,TX,17012781,ARLINGTON COLLEGIATE HS AT TCC-SE,School,Public School;,2224 SOUTHEAST PKWY,ARLINGTON,TX,140841,ARLINGTON INDEP SCHOOL DIST,School District,Public School District;,District,969005
recipient,TX,17012812,Jenny Preston Elemetary,School,New Construction School;Public School;,2455 Hillard Drive,Allen,TX,140445,ALLEN INDEP SCHOOL DISTRICT,School District,Public School District;,District,968979
recipient,TX,17012860, Texhoma Elementary School,School,Public School;,4th and Denver Streets,Texhoma,TX,140028,TEXHOMA INDEPENDENT SCH DIST,School District,Public School District;,District,970105
recipient,TX,17012880,Waxahachie High School West,School,New Construction School;Public School;,3001 US Hwy 287 Bypass,Waxahachie,TX,140530,WAXAHACHIE INDEP SCHOOL DIST,School District,Public School District;,District,970171
recipient,TX,17012886,Victory Place @ Coppell,School,Public School;,550 N DENTON TAP RD,COPPELL,TX,140450,COPPELL INDEP SCHOOL DISTRICT,School District,Public School District;,District,969213
recipient,TX,17012906,Cotulla Early Childhood Learning Center ,School,Head Start;Public School;,204 North Travis Street,Cotulla,TX,141471,COTULLA INDEP SCHOOL DISTRICT,School District,Public School District;,District,969219
recipient,TX,17012980,Roy J Smith Middle School,School,New Construction School;Public School;,6000 Brushy Creek Drive,Killeen,TX,141065,KILLEEN INDEP SCHOOL DISTRICT,School District,Public School District;,District,969564
recipient,TX,17012982,Alice Douse Elementary School,School,New Construction School;Public School;,700 REBECCA LYNN LN,KILLEEN,TX,141065,KILLEEN INDEP SCHOOL DISTRICT,School District,Public School District;,District,969564
recipient,TX,17013015,Trinity Basin Preparatory Arlington Campus,School,New Construction School;Public School;,1111 GIBBINS RD,ARLINGTON,TX,222195,TRINITY BASIN PREPARATORY,School District,Charter School District;Public School District;,School,971464
recipient,TX,17013020,Meadow Creek Tech Magnet Academy,School,New Construction School;Public School;,1129 MEADOWS PKWY,DESOTO,TX,140494,DESOTO INDEP SCHOOL DISTRICT,School District,Public School District;,District,969265
recipient,TX,17013043,New Middle School,School,Public School;,210 West Williams Dr,Burkburnett,TX,140962,BURKBURNETT INDEP SCH DISTRICT,School District,Public School District;,District,969115
recipient,TX,17013110,MANOR NEW TECH MIDDLE SCHOOL,School,Public School;,12116 JOYCE TURNER DRIVE,MANOR,TX,141727,MANOR ISD,School District,Public School District;,District,969672
recipient,TX,17013118,Laughlin Elementary School,School,New Construction School;Public School;,575 Mitchell Blvd,Laughlin AFB ,TX,141770,SAN FELIPE-DEL RIO CISD,School District,Public School District;,District,969982
recipient,TX,17013155,Kallison Ranch Elementary School,School,Public School;,8610 RANCH VW E,SAN ANTONIO,TX,141555,NORTHSIDE INDEP SCHOOL DIST,School District,Public School District;,District,969801
recipient,TX,17013156,John Marshall Harlan High School,School,Public School;,14350 FM 471,San Antonio,TX,141555,NORTHSIDE INDEP SCHOOL DIST,School District,Public School District;,District,969801
recipient,TX,17013157,Northside Child Nutrition Warehouse,School,Public School;,5903 NORTHWEST PKWY,SAN ANTONIO,TX,141555,NORTHSIDE INDEP SCHOOL DIST,School District,Public School District;,District,969801
recipient,TX,17013173,East Central Choice Program,School,Public School;,501 10TH ST,FLORESVILLE,TX,141557,EAST CENTRAL SCHOOL DISTRICT,School District,Public School District;,District,969302
recipient,TX,17013203,BEXAR COUNTY LRN CTR. ,School,Public School;,3621 FARM RD,SAN ANTONIO,TX,141557,EAST CENTRAL SCHOOL DISTRICT,School District,Public School District;,District,969302
recipient,TX,17013212,ES #28,School,Public School;,11902 Madera Run Parkway,Humble,TX,141252,HUMBLE INDEPENDENT SCHOOL DISTRICT,School District,Public School District;,District,969504
recipient,TX,17013213,MS #9,School,Public School;,11810 Madera Run Parkway,Humble,TX,141252,HUMBLE INDEPENDENT SCHOOL DISTRICT,School District,Public School District;,District,969504
recipient,TX,17013216,NIXON-SMILEY ALTERNATIVE CENTER,School,Public School;,102 W HWY 87,SMILEY,TX,141515,LA VERNIA INDEP SCHOOL DIST,School District,Public School District;,District,969593
recipient,TX,17013246,BEXAR CO J J A E P,School,Public School;,1402 N HACKBERRY,SAN ANTONIO,TX,141557,EAST CENTRAL SCHOOL DISTRICT,School District,Public School District;,District,969302
recipient,TX,17013304,Kathleen Joenger Lindsey Elementary,School,New Construction School;Public School;,2431 Joan Collier Trace,Katy,TX,141295,LAMAR CONS INDEP SCHOOL DIST,School District,Public School District;,District,969600
recipient,TX,17013332,ST ANTHONY ELEMENTARY ,School,Public School;,3732 MYRTLE ST,DALLAS,TX,16064475,ST ANTHONY SCHOOL DISTRICT,School District,Charter School District;Public School District;,,
recipient,TX,17013341,Brazos High School,School,Public School;,3005 EDNA AVE,WACO,TX,141139,WACO INDEP SCHOOL DISTRICT,School District,Public School District;,District,970160
recipient,TX,17013402,Weiss High School,School,New Construction School;Public School;,16821 WEISS LN,PFLUGERVILLE,TX,141729,PFLUGERVILLE INDEP SCHOOL DIST,School District,Public School District;,District,969856
recipient,TX,17013405,Mott Elementary,School,New Construction School;Public School;,20101 HODDE LN,PFLUGERVILLE,TX,141729,PFLUGERVILLE INDEP SCHOOL DIST,School District,Public School District;,District,969856
recipient,TX,17013418,Greenspoint Elementary School,School,Public School;,18028 Chisholm Trail,Houston,TX,141224,ALDINE INDEP SCHOOL DISTRICT,School District,Public School District;,District,968974
recipient,TX,17013431,Client Intermediate 10,School,New Construction School;Public School;,8400 West Rayford Rd,Spring,TX,141269,KLEIN ISD,School District,Public School District;,District,969569
recipient,TX,17013434,Lott Detention Center,School,Public School;,200 WILCO WAY,GEORGETOWN,TX,141063,JARRELL INDEP SCHOOL DISTRICT,School District,Public School District;,District,969528
recipient,TX,17013445,Pearson Ranch Middle School,School,New Construction School;Public School;,8901 Pearson Ranch Road,Austin,TX,141736,ROUND ROCK INDEP SCHOOL DIST,School District,Public School District;,District,969955
recipient,TX,17013452,London Middle School,School,Public School;,1306 FM 43,CORPUS CHRISTI,TX,141628,LONDON INDEP SCHOOL DISTRICT,School District,Public School District;,District,969643
recipient,TX,17013463,Pleasanton Elementary School - Grant St. ,School,New Construction School;Public School;,101 Grant Street,Pleasanton,TX,141495,PLEASANTON INDEP SCHOOL DIST,School District,Public School District;,District,969869
recipient,TX,17013546,NEWMAN INTERNATIONAL ACADEMY OF MANSFIELD,School,Charter School;Public School;,1201 SH 360,MANSFIELD,TX,17001300,NEWMAN INTERNATIONAL ACADEMY,School District,Charter School District;Public School District;,OtherLocation,1076326
recipient,TX,17013547,NEWMAN INTERNATIONAL ACADEMY OF GRACE,School,Charter School;Public School;,308 W PARK ROW DRIVE,ARLINGTON,TX,17001300,NEWMAN INTERNATIONAL ACADEMY,School District,Charter School District;Public School District;,OtherLocation,1076326
recipient,TX,17013548,NEWMAN INTERNATIONAL ACADEMY OF FORT WORTH,School,Charter School;Public School;,6801 MEADOWBROOK DR,FORT WORTH,TX,17001300,NEWMAN INTERNATIONAL ACADEMY,School District,Charter School District;Public School District;,OtherLocation,1076326
recipient,TX,17013558,New Elementary School,School,Public School;,"210 3rd St,",Grapeland,TX,140768,GRAPELAND INDEP SCH DISTRICT,School District,Public School District;,District,969424
recipient,TX,17013587,Pecan Trail Intermediate School,School,Public School;,4319 GREENS PRAIRIE TRL,COLLEGE STATION,TX,141408,COLLEGE STATION INDEP SCH DIST,School District,Public School District;,District,968963
recipient,TX,17013624,Saginaw Middle School,School,Public School;,7855 OLD DECATUR RD,SAGINAW,TX,17003241,International Leadership of Texas,School District,Public School District;,OtherLocation,1082694
recipient,TX,17013625,East Fort Worth Middle School,School,Public School;,5901 BOCA RATON BLVD,FORT WORTH,TX,17003241,International Leadership of Texas,School District,Public School District;,OtherLocation,1082694
recipient,TX,17013626,Lancaster Middle School,School,Public School;,1900 W. Pleasant Run Rd,Lancaster,TX,17003241,International Leadership of Texas,School District,Public School District;,OtherLocation,1082694
recipient,TX,17013627,Houston Windmill Lakes Middle School,School,Public School;,9898 WINDMILL LAKES BLVD,HOUSTON,TX,17003241,International Leadership of Texas,School District,Public School District;,OtherLocation,1082694
recipient,TX,17013640,GALVESTON CO JJAEP,School,Public School;,6101 ATTWATER AVE,DICKINSON,TX,141332,DICKINSON INDEP SCHOOL DIST,School District,Public School District;,District,969276
recipient,TX,17013642,Transforming Lives Co-Op,School,Public School;,6101 ATTWATER AVE,DICKINSON,TX,141332,DICKINSON INDEP SCHOOL DIST,School District,Public School District;,District,969276
recipient,TX,17013644,Galveston County Detention,School,Public School;,6101 ATTWATER AVE,DICKINSON,TX,141332,DICKINSON INDEP SCHOOL DIST,School District,Public School District;,District,969276
recipient,TX,17013657,STEAM Middle School,School,Public School;,900 SW HILLSIDE DR,BURLESON,TX,140849,BURLESON INDEP SCHOOL DISTRICT,School District,Public School District;,District,969117
recipient,TX,17013658,Burleson Collegiate High School,School,Public School;,201 S HURST RD STE 100,BURLESON,TX,140849,BURLESON INDEP SCHOOL DISTRICT,School District,Public School District;,District,969117
recipient,TX,17013659,Tarrant County JJAEP,School,Public School;,3131 SANGUINET ST,FORT WORTH,TX,140849,BURLESON INDEP SCHOOL DISTRICT,School District,Public School District;,District,969117
recipient,TX,17013661,Gilbreath-Reed Career and Technical Center,School,New Construction School;Public School;,1005 N George Bush HWY,Garland,TX,140461,GARLAND INDEP SCHOOL DISTRICT,School District,Public School District;,District,969380
recipient,TX,17013665,Grapevine-Colleyville Collegiate Academy at TCC NE,School,Public School;,828 W HARWOOD RD BLDG NMPC,HURST,TX,140860,GRAPEVINE-COLLEYVILLE IND S D,School District,Public School District;,District,969425
recipient,TX,17013666,Grapevine-Colleyville IUNIVERSITY PREP,School,Public School;,3051 IRA E WOODS AVE,GRAPEVINE,TX,140860,GRAPEVINE-COLLEYVILLE IND S D,School District,Public School District;,District,969425
recipient,TX,17013677,Buinger CTE Academy,School,Public School;,1849 E Central Drive,Bedford,TX,140845,HURST-EULESS-BEDFORD SCH DIST,School District,Public School District;,District,969509
recipient,TX,17013701,New School,School,New Construction School;Public School;,3621 Barley Road,Leander,TX,141722,LEANDER INDEPENDENT SCHOOL DISTRICT,School District,Public School District;,District,969612
applicant,TX,17014022,"Montessori for All, Inc.",School District,Charter School District;Public School District;,5100 PECAN BROOK,Austin,TX,17014022,"Montessori for All, Inc.",School District,Charter School District;Public School District;,,
recipient,TX,17014083,MAGNOLIA MONTESSORI FOR ALL,School,Charter School;Public School;,5100 PECAN BROOK DR,AUSTIN,TX,17014022,"Montessori for All, Inc.",School District,Charter School District;Public School District;,,
applicant,UT,17005425,SPECTRUM ACADEMY SCHOOL DISTRICT,School District,Charter School District;Public School District;,575  N CUTLER DR,NORTH SALT LAKE,UT,17005425,SPECTRUM ACADEMY SCHOOL DISTRICT,School District,Charter School District;Public School District;,,
recipient,UT,17012745,MAJESTIC FIELDS ELEMENTARY SCHOOL,School,New Construction School;Public School;,675 E. Majestic Drive,Washington,UT,142887,WASHINGTON COUNTY SCHOOL DISTRICT,School District,Public School District;,District,972242
recipient,UT,17012758,WATER CANYON HIGH SCHOOL,School,Public School;,880 N. Carling St,Hildale,UT,142887,WASHINGTON COUNTY SCHOOL DISTRICT,School District,Public School District;,District,972242
recipient,UT,17013098,SPECTRUM ACADEMY - CREATE CAMPUS,School,Public School;,35 N REDWOOD RD,NORTH SALT LAKE,UT,17005425,SPECTRUM ACADEMY SCHOOL DISTRICT,School District,Charter School District;Public School District;,,
recipient,UT,17013350,WEBER INNOVATION CENTER,School,Public School;,1007 W 1200 S,OGDEN,UT,142844,WEBER SCHOOL DISTRICT,School District,Public School District;,District,972244
recipient,VA,24948,THE ACADEMY VIRGINIA RANDOLPH,School,Public School;,2204 MOUNTAIN RD,GLEN ALLEN,VA,126514,HENRICO COUNTY SCHOOL DISTRICT,School District,Public School District;,District,975565
recipient,VA,231246,SECEP,School,Public School;,861 GLEN ROCK RD,NORFOLK,VA,197129,NORFOLK PUBLIC SCHOOL DISTRICT,School District,Public School District;,District,975604
applicant,VA,17012139,CodeRVA High School,School,New Construction School;Public School;,2938 RIVER RD W # I,GOOCHLAND,VA,17012139,CodeRVA High School,School,New Construction School;Public School;,,
applicant,VT,17003072,White River Valley Supervisory Union,School District,Public School District;,461 Waterman Road,Royalton,VT,17003072,White River Valley Supervisory Union,School District,Public School District;,,
recipient,VT,17011954,ACE,School,Public School;,21 PARK ST,ESSEX JUNCTION,VT,17012548,Essex Westford Educational Community Unified Union School District,School District,Public School District;,,
applicant,VT,17012548,Essex Westford Educational Community Unified Union School District,School District,Public School District;,51 Park Street,Essex Junction,VT,17012548,Essex Westford Educational Community Unified Union School District,School District,Public School District;,,
applicant,VT,17012902,Lamoille North Modified Unified Union School District,School District,Public School District;,95 Cricket Hill rd,Hyde Park,VT,17012902,Lamoille North Modified Unified Union School District,School District,Public School District;,,
recipient,VT,17013509,RMSRHS ALLEN STREET CAMPUS,School,Public School;,101 ALLEN STREET,RUTLAND,VT,122090,RUTLAND CITY SUPER SCH DIST 40,School District,Public School District;,District,980698
recipient,VT,17013510,RHS HOWE CAMPUS,School,Public School;,1 SCALE AVENUE SUITE 43,RUTLAND,VT,122090,RUTLAND CITY SUPER SCH DIST 40,School District,Public School District;,District,980698
applicant,VT,17014185,RUTLAND COUNTY  HEADSTART,School District,Public School District;,78 MEADOW ST,RUTLAND,VT,17014185,RUTLAND COUNTY  HEADSTART,School District,Public School District;,,
recipient,VT,17014252,RUTLAND COUNTY HEADSTART,School,Public School;,78 MEADOW ST,RUTLAND,VT,17014185,RUTLAND COUNTY  HEADSTART,School District,Public School District;,,
recipient,WA,224012,MARY WALKER ALT. HIGH SCHOOL,School,Public School;,PO BOX 159,SPRINGDALE,WA,145498,MARY WALKER SCHOOL DIST 207,School District,Public School District;,District,983117
recipient,WA,17004545,Brewster Middle School,School,New Construction School;Public School;,510 7th Street,Brewster,WA,145383,BREWSTER SCHOOL DISTRICT 111,School District,Public School District;,District,982980
recipient,WA,17012023,Columbia River Gorge Elementary School,School,New Construction School;Public School;,35300 SE EVERGREEN BLVD,Washougal,WA,145371,WASHOUGAL SCHOOL DIST 112-6,School District,Public School District;,District,983294
recipient,WA,17012664,Stevens Creek Elementary School,School,New Construction School;Public School;,9317 29th Street NE,Lake Stevens,WA,145225,LAKE STEVENS SCHOOL DISTRICT 4,School District,Public School District;,District,983098
recipient,WA,17012746,Riverbend Elementary,School,New Construction School;Public School;,17720 E MISSION AVE,SPOKANE VALLEY,WA,145441,CENTRAL VALLEY SCH DIST 356,School District,Public School District;,District,982997
recipient,WA,17012813,HOME CHOICE ACADEMY,School,Public School;,13501 NE 28th Street ,Vancouver,WA,145369,EVERGREEN SCHOOL DISTRICT,School District,Public School District;,District,983049
recipient,WA,17012814,Barker Creek Learning Center,School,Public School;,1400 NE McWilliams Rd.,Bremerton,WA,145274,CENTRAL KITSAP SCHOOL DISTRICT 401,School District,Public School District;,District,982996
recipient,WA,17013003,Ocean Beach Alternative School,School,Public School;,500 WASHINGTON AVE S,LONG BEACH,WA,145356,OCEAN BEACH SCHOOL DIST 101,School District,Public School District;,District,983164
recipient,WA,17013004,"School of Industrial Design, Engineering, and Art (iDEA)",School,Public School;,6701 S PARK AVE,TACOMA,WA,145279,TACOMA SCHOOL DISTRICT 10,School District,Public School District;,District,983262
recipient,WA,17013094, Parent Partnership Program,School,Public School;,525 13TH ST,SNOHOMISH,WA,145243,SNOHOMISH SCHOOL DISTRICT 201,School District,Public School District;,District,983236
recipient,WI,16046954,ROY CHAPMAN ANDREWS ACADEMY,School,Public School;,"1701 RIVERSIDE DR, 26 ECLIPSE CENTER",BELOIT,WI,132923,BELOIT SCHOOL DISTRICT,School District,Charter School District;Public School District;,District,983745
recipient,WI,16046973,GEORGE WARRINER HIGH SCHOOL,School,Charter School;Public School;,721 N. 6TH STREET,SHEBOYGAN,WI,132785,SHEBOYGAN AREA SCHOOL DISTRICT,School District,Public School District;,District,984183
recipient,WI,17009347,Johnson Creek New MS/HS,School,Public School;,County Hwy B,Johnson Creek,WI,132745,JOHNSON CREEK SCHOOL DISTRICT,School District,Public School District;,District,983969
recipient,WI,17011503,Beloit Virtual School,School,Public School;,1633 Keeler Ave.,Beloit,WI,132923,BELOIT SCHOOL DISTRICT,School District,Charter School District;Public School District;,District,983745
recipient,WI,17011637,LITTLE PRAIRIE,School,New Construction School;Public School;,3079 Townline Rd,EAST TROY,WI,132813,EAST TROY COMM SCHOOL DISTRICT,School District,Public School District;,District,983871
recipient,WI,17011691,WILLIAMS BAY MIDDLE SCHOOL,School,Public School;,500 W GENEVA ST,WILLIAMS BAY,WI,132879,WILLIAMS BAY SCHOOL DISTRICT,School District,Public School District;,District,984298
recipient,WI,17011799,BIRCHWOOD BLUE HILLS CHARTER ,School,Charter School;Public School;,300 S. Wilson St. ,Birchwood,WI,133412,BIRCHWOOD SCHOOL DISTRICT,School District,Charter School District;Public School District;,District,983749
applicant,WI,17012528,Next Door Foundation ,School,Charter School;Public School;,2545 N 29TH ST,MILWAUKEE,WI,17012528,Next Door Foundation ,School,Charter School;Public School;,,
recipient,WI,17012731,CARE,School,Charter School;Public School;,2000 Polk Street,Stevens Point,WI,133245,STEVENS POINT AREA SCHOOL DISTRICT,School District,Public School District;,District,984210
recipient,WI,17012738,ELLSWORTH ELEMENTARY SCHOOL,School,New Construction School;Public School;,300 HILLCREST ST,ELLSWORTH,WI,133106,ELLSWORTH COMM SCHOOL DISTRICT,School District,Public School District;,District,983888
recipient,WI,17013253,CORE KNOWLEDGE CHARTER SCHOOL,School,Charter School;Public School;,740 N MAIN ST,VERONA,WI,133007,VERONA AREA SCHOOL DISTRICT,School District,Charter School District;Public School District;,District,984240
recipient,WI,17013263,NEW CENTURY CHARTER SCHOOL,School,Charter School;Public School;,401 W VERONA AVE,VERONA,WI,133007,VERONA AREA SCHOOL DISTRICT,School District,Charter School District;Public School District;,District,984240
recipient,WI,17013279,EXPLORATION ACADEMY,School,Charter School;Public School;,400 N MAIN ST,VERONA,WI,133007,VERONA AREA SCHOOL DISTRICT,School District,Charter School District;Public School District;,District,984240
recipient,WI,17013280,VERONA AREA INTERNATIONAL SCHOOL,School,Charter School;Public School;,5830 DEVORO RD,FITCHBURG,WI,133007,VERONA AREA SCHOOL DISTRICT,School District,Charter School District;Public School District;,District,984240
recipient,WI,17013399,ALLIANCE CHARTER SCHOOL,School,Charter School;Public School;,215 E FOREST AVE,NEENAH,WI,133484,NEENAH JOINT SCHOOL DISTRICT,School District,Public School District;,District,984064
applicant,WI,17013981,"Pathways High, Inc.",School,Charter School;Public School;,336 W. Walnut Street,Milwaukee,WI,17013981,"Pathways High, Inc.",School,Charter School;Public School;,,
recipient,WV,17013562,West Preston School,School,Public School;,113 Eby School Rd,Arthurdale,WV,126776,PRESTON COUNTY SCHOOL DISTRICT,School District,Public School District;,District,983850
recipient,WY,17012869,Wind River Learning Academy,School,Public School;,223 N. Cherry St.,Pavillion,WY,142518,FREMONT CO SCHOOL DISTRICT 06,School District,Public School District;,District,984873